BOARD,NAME,ADDRESS_AB,POSTAL_COD,CITY,PROVINCE,PHONE_NO,FAX_NO,EMAIL,GRADES,POSTSECOND,DATA_SOURCE,ELEM,JUNIOR_H,SENIOR_H,GLOBAL_ID,POINT
The Calgary School Division,David Thompson School,9320 Arbour Cres SE,T2J1K4,Calgary,AB,(403) 777-7470,,davidthompson@cbe.ab.ca,Elementary/Junior High,N,N,Y,Y,N,{A56C0215-3848-4863-A4D3-DC36327159B9},POINT (-114.0546514 50.9694036)
Connect Charter School Society,Connect Charter School,5915 Lewis Drive S.W.,T3E5Z4,Calgary,AB,(403) 282-2890,,office@connectcharter.ca,Elementary/Junior High,N,N,Y,Y,N,{F57CF224-BFE6-4C79-A201-C4F8A3800F04},POINT (-114.1357584 51.0003735)
The Calgary Roman Catholic Separate School Division,Prince of Peace School,43 Auburn Meadows Blvd SE,T3M2C9,Calgary,AB,(403) 500-2125,,princeofpeace@cssd.ab.ca,Elementary/Junior High,N,N,Y,Y,N,{12C8ED21-0BFA-45A7-80F2-85D719166E3D},POINT (-113.9498421 50.8932639)
The Calgary School Division,Colonel Walker School,1921  9 Ave SE,T2G0V3,Calgary,AB,(403) 777-6780,,colonelwalker@cbe.ab.ca,Elementary,N,N,Y,N,N,{D617F8E8-158B-471D-9254-9F099FE43573},POINT (-114.0190347 51.034362)
The Calgary School Division,Alternative High School,5003  20 St SW,T2T5A5,Calgary,AB,(403) 777-7730,,alternative@cbe.ab.ca,Senior High,N,N,N,N,Y,{779B7375-BF66-47C8-930D-5678241C9570},POINT (-114.10996 51.0096595)
The Calgary School Division,James Fowler High School,4004  4 St NW,T2K1A1,Calgary,AB,(403) 230-4743,,jamesfowler@cbe.ab.ca,Senior High,N,N,N,N,Y,{DAFB39EA-5E1A-4AB8-B350-9A82B387C648},POINT (-114.0705163 51.0865321)
The Calgary Roman Catholic Separate School Division,St. Jerome Elementary School,11616 Panorama Hills Blvd NW,T3K5S3,Calgary,AB,(403) 500-2115,,stjerome@cssd.ab.ca,Elementary,N,N,Y,N,N,{12A7D8C8-BB13-45A3-95C0-23058013AB32},POINT (-114.0792827 51.1577112)
The Calgary Roman Catholic Separate School Division,St. John Paul II School,119 Castleridge Drive N.E.,T3J1P6,Calgary,AB,(403) 500-2085,,stjohnpaul2@cssd.ab.ca,Elementary,N,N,Y,N,N,{0EFE8789-DA0B-4600-876D-3ABB83D03A85},POINT (-113.9561994 51.1077102)
The Calgary School Division,McKenzie Towne School,679 Prestwick Cir SE,T2Z0V3,Calgary,AB,,,mckenzietowneSchool@cbe.ab.ca,Elementary,N,N,Y,N,N,{B0EE8572-7958-496B-BBE8-765BE2C0E190},POINT (-113.9667175 50.9270487)
The Calgary School Division,CLS Alternative Site,45 Saddletowne Circle NE,T3J4W3,Calgary,AB,(403) 777-7272,,chinooklearning@cbe.ab.ca,Unknown,N,N,N,N,N,{BE752E17-3243-49D3-8B1B-A142AFA91AE7},POINT (-113.9488457 51.1219806)
The Calgary School Division,Queen Elizabeth School,402 18 St NW,T2N2G5,Calgary,AB,(403) 777-6789,,queenelizabethelem@cbe.ab.ca,Elementary,N,N,Y,N,N,{93E10CE5-5286-4BD4-ADF4-7461566AA663},POINT (-114.1019611 51.0554584)
Ahmadiyya Muslim Schools Society Alberta,Ahmadiyya Muslim School,4353,T3J4L3,Calgary,AB,(403) 355-6313,,info.calgary@ahmadiyyaschool.ca,Elementary/Junior High,N,N,Y,Y,N,{EB279E44-1F03-44BA-B388-205071A40D2C},POINT (-113.9712639 51.1018352)
Alberta Classical Academy Ltd.,Calgary Classical Academy,231 6 St NE,T2E3Y1,Calgary,AB,(587) 885-3688,,info@calgaryclassicalacademy.ca,Elementary,N,N,Y,N,N,{DD905B64-9573-4694-8FB4-8A4CDB30273D},POINT (-114.0488198 51.0544219)
The Calgary School Division,Bowcroft School,3940  73 St NW,T3B2L9,Calgary,AB,(403) 777-6020,,bowcroft@cbe.ab.ca,Elementary,N,N,Y,N,N,{668DE2D5-08CB-4AC9-9CF1-6F5FCA7B702E},POINT (-114.1927889 51.0875591)
The Calgary Roman Catholic Separate School Division,Our Lady of Lourdes,1916 2nd Street SW,T2S1S3,Calgary,AB,(403) 500-2002,,ourladyoflourdes@cssd.ab.ca,Elementary/Junior High,N,N,Y,Y,N,{91648172-1EFC-4632-BEBC-719B8C122F15},POINT (-114.0681603 51.0356731)
The Calgary Roman Catholic Separate School Division,St. Sylvester School,7318 Silver Springs Blvd NW.,T3B4N1,Calgary,AB,(403) 500-2063,,stsylvester@cssd.ab.ca,Elementary,N,N,Y,N,N,{DC102085-6F83-4D3A-A87E-6A89F0C1566B},POINT (-114.1943526 51.1092551)
The Calgary School Division,Centennial High School,55 Sun Valley Blvd SE,T2X3W7,Calgary,AB,(403) 256-8140,,centennialhigh@cbe.ab.ca,Senior High,N,N,N,N,Y,{DD69EF0B-70B6-42DB-940A-11C2305636EA},POINT (-114.0533548 50.9061097)
The Calgary School Division,Adolescent Mental Health Services,805  37 St NW,T2N2T9,Calgary,AB,(403) 270-1751,,woodshomes@cbe.ab.ca,Elementary/Junior High/Senior High,N,N,Y,Y,Y,{A2F5D912-8C13-4AE2-BBF8-33F6F138CA71},POINT (-114.1344107 51.0646688)
The Calgary School Division,Glendale School,2415 Kelwood Dr SW,T3E3Z8,Calgary,AB,(403) 777-8330,,glendale@cbe.ab.ca,Elementary,N,N,Y,N,N,{43CDB2DA-527E-4E60-99C2-46B1FCACC0CA},POINT (-114.14558 51.0324672)
The Calgary School Division,Banting and Best School,1819 66 Avenue SE,T2C2K5,Calgary,AB,(403) 777-8650,,bantingandbest@cbe.ab.ca,Elementary,N,N,Y,N,N,{B9E74ADF-D2AA-45CB-9318-52CAF31E322B},POINT (-114.0138538 50.993726)
The Calgary School Division,Grant MacEwan School,180 Falshire Dr NE,T3J3A5,Calgary,AB,(403) 777-6930,,grantmacewan@cbe.ab.ca,Elementary,N,N,Y,N,N,{95C03AAF-9AAB-4E8F-ACB2-6BB8EC4EBFE2},POINT (-113.9429503 51.1064276)
West Island College Society of Alberta,West Island College,7410 Blackfoot Trail S.E.,T2H1M5,Calgary,AB,(403) 255-5300,,office@mywic.ca,Junior High/Senior High,N,N,N,Y,Y,{317A4FE2-31D1-4786-A28F-098823289CFB},POINT (-114.0521604 50.9871044)
Asasa Learning,Asasa Academy,599 Northmount Drive N.W.,T2K3J6,Calgary,AB,(403) 285-5677,,,Elementary,N,N,Y,N,N,{1288E417-3739-482E-A1E1-368F3D02C98A},POINT (-114.0880221 51.0871733)
The Calgary School Division,Colonel Irvine School,412 Northmount Dr NW,T2K3H6,Calgary,AB,(403) 777-7280,,colonelirvine@cbe.ab.ca,Elementary/Junior High,N,N,Y,Y,N,{C204D385-B8AF-4CCF-A704-2441F6A0FD02},POINT (-114.0799321 51.0924368)
The Calgary School Division,Thomas B. Riley School,3915  69 St NW,T3B2J9,Calgary,AB,(403) 777-7260,,thomasbriley@cbe.ab.ca,Junior High,N,N,N,Y,N,{96EA35FF-9B7E-40D9-9F41-FC5DEA88FA93},POINT (-114.1890516 51.0875292)
The Calgary Roman Catholic Separate School Division,Holy Child School,31 Silverado Terrace SW,T2X0K4,Calgary,AB,(403) 500-2130,,holychild@cssd.ab.ca,Elementary/Junior High,N,N,Y,Y,N,{7757B37C-7D67-40C5-B7EF-91CB7AF0D374},POINT (-114.0831381 50.886183)
The Calgary Roman Catholic Separate School Division,St. Mark Elementary School,4589 Marbank Drive N.E.,T2A3V8,Calgary,AB,(403) 500-2068,,stmark@cssd.ab.ca,Elementary,N,N,Y,N,N,{5829F754-1C86-4524-90A1-79D15159EFBC},POINT (-113.9693478 51.0630324)
The Calgary School Division,Edgemont School,55 Edgevalley Cir NW,T3A4X1,Calgary,AB,(403) 777-6340,,edgemont@cbe.ab.ca,Elementary,N,N,Y,N,N,{794E5F3B-6F94-45EB-BAA3-4EECB75CE9B2},POINT (-114.1435785 51.1288887)
The Calgary School Division,Hugh A. Bennett School,40 Saddlelake Way NE,T3J0V1,Calgary,AB,(403) 817-3560,,hughabennett@cbe.ab.ca,Elementary,N,N,Y,N,N,{29B73970-EDAF-45F7-A659-3CF71915FACF},POINT (-113.9285483 51.131684)
Hellenic Society of Calgary and District,Greek Community School,1 Tamarac Crescent S.W.,T3C3B7,Calgary,AB,(403) 246-4553,,greekschool@calgaryhellenic.com,Senior High,N,N,N,N,Y,{B7A8771D-A972-4DE3-8128-54598301E200},POINT (-114.1374937 51.0481739)
The Calgary Roman Catholic Separate School Division,Our Lady of the Assumption School,7311 - 34 Avenue N.W.,T3B1N5,Calgary,AB,(403) 500-2045,,assumption@cssd.ab.ca,Elementary/Junior High,N,N,Y,Y,N,{8496A599-DCC9-4FF2-B234-4BE8636D4A31},POINT (-114.1913503 51.0832996)
The Calgary Roman Catholic Separate School Division,All Saints School,729 Legacy Village Rd SE,T2X4K9,Calgary,AB,(403) 500-2133,,allsaints@cssd.ab.ca,Senior High,N,N,N,N,Y,{BBCED0AD-E5E6-45F0-B4C6-DC484269F1E7},POINT (-114.026751 50.8593286)
Eastside City Church and Missionary Society,Eastside Christian Academy,1320 Abbeydale Drive SE,T2A7L8,Calgary,AB,(403) 569-1003,,admin@eastsidechristianacademy.ca,Elementary/Junior High/Senior High,N,N,Y,Y,Y,{6C9E85AD-39E0-4662-A0AD-9B5045747DC3},POINT (-113.93022 51.0519523)
The Calgary School Division,Highwood School,11 Holmwood Ave NW,T2K2G5,Calgary,AB,(403) 777-6200,,highwood@cbe.ab.ca,Elementary,N,N,Y,N,N,{FB616BD6-4236-4846-A37F-CA4F876F7AD2},POINT (-114.0765328 51.0922436)
The Calgary School Division,CLS Lord Shaughnessy Writing Centre,2336 53 Ave SW,T3E1L2,Calgary,AB,(403) 777-7272,,chinooklearning@cbe.ab.ca,Unknown,N,N,N,N,N,{5141C237-5062-4D69-B24D-B5D0537FC84A},POINT (-114.1139277 51.0065169)
The Calgary Roman Catholic Separate School Division,John Costello Catholic School,300 Strathcona Drive S.W.,T3H1N9,Calgary,AB,(403) 500-2003,,Johncostello@cssd.ab.ca,Elementary,N,N,Y,N,N,{2D8EAED5-93CE-4C83-A749-4A2AA73F0083},POINT (-114.1807075 51.0488326)
The Calgary School Division,Fairview School,7840 Fairmount Dr SE,T2H0Y1,Calgary,AB,(403) 777-7900,,fairview@cbe.ab.ca,Elementary/Junior High,N,N,Y,Y,N,{2BAAB6F6-3379-4A77-B4BF-9F01C55D5ADF},POINT (-114.05945 50.9839856)
The Calgary School Division,Silver Springs School,7235 Silver Mead Rd NW,T3B3V1,Calgary,AB,(403) 777-6070,,silversprings@cbe.ab.ca,Elementary,N,N,Y,N,N,{54351786-8861-4259-B7E3-8F246950D054},POINT (-114.1908255 51.1057102)
The Calgary Roman Catholic Separate School Division,St. Basil Elementary/Junior High School,919 Tuscany Drive NW,T3L2T5,Calgary,AB,(403) 500-2108,,stbasil@cssd.ab.ca,Elementary/Junior High,N,N,Y,Y,N,{F553D91D-56B6-44D6-9392-8AB9406B2234},POINT (-114.2503171 51.1194184)
The Calgary School Division,Nellie McClung School,2315 Palliser Dr SW,T2V3S4,Calgary,AB,(403) 777-8620,,nelliemcclung@cbe.ab.ca,Elementary,N,N,Y,N,N,{2E50448F-0017-4E4C-A3AC-A700744F0E9E},POINT (-114.1130138 50.9684953)
The Palliser School Division,Calgary Christian High School,5029 - 26 Avenue S.W.,T3E0R5,Calgary,AB,(403) 242-2896,,ccssoffice@pallisersd.ab.ca,Junior High/Senior High,N,N,N,Y,Y,{0ACE84E5-956B-40F6-BE21-CA093F7ACEF2},POINT (-114.1589411 51.0297634)
The Calgary Roman Catholic Separate School Division,Holy Angels School,275 Riverglen Drive SE,T2C3T5,Calgary,AB,(403) 500-2101,,holyangels@cssd.ab.ca,Elementary,N,N,Y,N,N,{A1EF51F5-5B51-40CF-B900-69311A934747},POINT (-114.0100177 50.9740953)
The Alberta Ballet Company,Alberta Ballet School,"West Annex, 2nd Floor  906-12 Avenue S.W.",T2R1K7,Calgary,AB,(403) 245-2274,,schoolreception@albertaballet.com,Junior High/Senior High,N,N,N,Y,Y,{90B97C1F-EDA1-441A-90E9-85EF5987303E},POINT (-114.082058 51.042251)
The Calgary School Division,Bridlewood School,207 Bridleridge Way SW,T2Y0L4,Calgary,AB,,,,Elementary,N,N,Y,N,N,{F91DB676-D75D-44A8-90FC-E1209F50B143},POINT (-114.110662 50.9023836)
The Calgary School Division,Sir John Franklin School,2215  8 Ave NE,T2E0T7,Calgary,AB,(403) 777-7610,,sirjohnfranklin@cbe.ab.ca,Elementary/Junior High,N,N,Y,Y,N,{AF0950D7-2CC7-4AA6-95A3-ECB705300BD8},POINT (-114.0079231 51.0596772)
The Calgary School Division,Sunalta School,536 Sonora Ave SW,T3C2J9,Calgary,AB,(403) 777-8590,,sunalta@cbe.ab.ca,Elementary,N,N,Y,N,N,{227171E9-2228-4FAB-90B7-C675A3CA38D0},POINT (-114.1108977 51.0413434)
The Calgary Roman Catholic Separate School Division,St. Peter Elementary School,720 - 58 Street S.E.,T2A5L9,Calgary,AB,(403) 500-2079,,stpeter@cssd.ab.ca,Elementary,N,N,Y,N,N,{2005371B-C188-400F-8FD6-950DC7D0053A},POINT (-113.949107 51.046185)
Gobind Marg Charitable Trust Foundation,Gobind Sarvar School Guru Nanak Gate Campus,8730 - 45 Street NE,T3J2J1,Calgary,AB,(403) 805-1822,,gss@gscalgary.com,Elementary/Junior High/Senior High,N,N,Y,Y,Y,{56EB1F0F-ED2D-4DC2-A7F8-5CA55A7BFEE9},POINT (-113.9663021 51.1295367)
The Southern Francophone Education Region,École Notre-Dame-de-la-Paix,809 Willingdon Blvd SE,T2J2B7,Calgary,AB,(403) 271-5544,,ecolendp@francosud.ca,Elementary,N,N,Y,N,N,{A20535C1-9C8D-4700-BBFD-DDAB058FF100},POINT (-114.0433726 50.950917)
The Calgary School Division,Huntington Hills School,820  64 Ave NW,T2K0M5,Calgary,AB,(403) 777-6650,,huntingtonhills@cbe.ab.ca,Elementary,N,N,Y,N,N,{AE0A5423-BF6A-404F-8CE7-C6E6D123C516},POINT (-114.0774569 51.112209)
The Calgary Roman Catholic Separate School Division,Monsignor Neville Anderson School,327 Sandarac Drive N.W.,T3K4B2,Calgary,AB,(403) 500-2094,,mna.school@cssd.ab.ca,Elementary,N,N,Y,N,N,{8B8CE0FF-E29B-47D4-8D3E-E72F29B5A7E4},POINT (-114.1040923 51.139143)
Rundle College Society,Rundle College Academy,4330 - 16 Street S.W.,T2T4H9,Calgary,AB,(403) 250-2965,,contactus@rundle.ab.ca,Elementary/Junior High/Senior High,N,N,Y,Y,Y,{22D5AEE1-B4C9-4A3A-9B7E-420912CCE601},POINT (-114.0997725 51.0152966)
Centro Linguistico E Culturale Italiano Calgary,Italian School of Calgary,416-1 Avenue N.E.,T2E0B4,Calgary,AB,(403) 264-6349,,clcic@shaw.ca,Junior High/Senior High,N,N,N,Y,Y,{59A2D55F-C54A-472A-A982-EACF621C6C8B},POINT (-114.0531472 51.0537463)
The Calgary School Division,Terrace Road School,2103  46 St NW,T3B1B3,Calgary,AB,(403) 777-6080,,terraceroad@cbe.ab.ca,Elementary,N,N,Y,N,N,{10770CC5-D5A0-46D4-9483-51C0BDB2F4BC},POINT (-114.1579317 51.0745019)
The Calgary Roman Catholic Separate School Division,Our Lady of the Rosary School,41 Cranston Gate SE,T3M0W7,Calgary,AB,(403) 500-2126,,ourladyrosary@cssd.ab.ca,Elementary,N,N,Y,N,N,{DF7431CC-2864-4008-84A7-8F216433F850},POINT (-113.9682061 50.8744292)
The Calgary School Division,Captain John Palliser School,1484 Northmount Dr NW,T2L0G6,Calgary,AB,(403) 777-6170,,captainjohnpalliser@cbe.ab.ca,Elementary,N,N,Y,N,N,{CA81E560-2217-47F6-A785-48D5531DB239},POINT (-114.1360161 51.0963649)
The Calgary School Division,Ian Bazalgette School,3909  26 Ave SE,T2B0C6,Calgary,AB,(403) 777-7360,,ianbazalgette@cbe.ab.ca,Elementary/Junior High,N,N,Y,Y,N,{70073BBF-5467-498E-830F-D7098CF8044A},POINT (-113.977669 51.02983)
The Calgary Roman Catholic Separate School Division,St. Rose of Lima Junior High School,2419 50 Street NE,T1Y1Z5,Calgary,AB,(403) 500-2071,,strose@cssd.ab.ca,Elementary/Junior High,N,N,Y,Y,N,{072AB1CD-2992-4D2F-AD39-29D8322E96E4},POINT (-113.9622789 51.0758006)
The Calgary Roman Catholic Separate School Division,Christ the King Catholic School,333 Cranston Way SE,T3M1K6,Calgary,AB,(403) 500-2119,,christtheking@cssd.ab.ca,Elementary/Junior High,N,N,Y,Y,N,{167AC64B-3A8A-4017-89AF-ED60EC206F13},POINT (-113.9759703 50.8878369)
The Calgary School Division,Buffalo Rubbing Stone School,1308 Panatella Blvd NW,T3K0X2,Calgary,AB,(403) 817-3536,,buffalorubbingstone@cbe.ab.ca,Elementary,N,N,Y,N,N,{31E56267-B89C-4B29-A524-96F89F2D1DB8},POINT (-114.0873685 51.1683524)
Banbury Crossroads School,Banbury Crossroads School,B1 #201  2451 Dieppe Avenue S.W.,T3E7K1,Calgary,AB,(403) 270-7787,,general@banburycrossroads.com,Elementary/Junior High/Senior High,N,N,Y,Y,Y,{29014C77-11C8-4168-A072-9150547928BF},POINT (-114.1190388 51.0192866)
The Calgary School Division,Marshall Springs School,1100 Everridge Dr SW,T2Y4X5,Calgary,AB,(403) 817-3528,,marshallsprings@cbe.ab.ca,Elementary/Junior High,N,N,Y,Y,N,{D2B6CC5B-AD4F-41FE-9B25-41300D5F023F},POINT (-114.1123004 50.9114448)
The Calgary School Division,The Hamptons School,10330 Hamptons Blvd NW,T3A6G2,Calgary,AB,(403) 777-7300,,hamptons@cbe.ab.ca,Elementary,N,N,Y,N,N,{1DEB85A4-A92F-446B-AA0E-A23575E06250},POINT (-114.148507 51.1434457)
Webber Academy Foundation,Webber Academy,1515 - 93 Street SW,T3H4A8,Calgary,AB,(403) 277-4700,,nwebber@webberacademy.ca,Elementary/Junior High/Senior High,N,N,Y,Y,Y,{8FC37B2C-C3C5-4C6A-B2D6-5B6873E6FDC4},POINT (-114.2250221 51.0441215)
The Calgary Roman Catholic Separate School Division,Father James Whelihan,70 Sunmills Drive S.E.,T2X2R5,Calgary,AB,(403) 500-2087,,fatherwhelihan@cssd.ab.ca,Elementary/Junior High,N,N,Y,Y,N,{FA27B246-DE82-4654-BD65-5FBA3558B2B8},POINT (-114.0470194 50.9045243)
Lycee Louis Pasteur Society,Lycee Louis Pasteur,4099 Garrison Blvd. S.W.,T2T6G2,Calgary,AB,(403) 243-5420,,lycee.ab.ed@lycee.ca,Elementary/Junior High/Senior High,N,N,Y,Y,Y,{0C36B5C5-D3B5-4E97-B202-42F6817D46F1},POINT (-114.1144436 51.0178041)
The Palliser School Division,Calgary Christian School,2839 - 49 Street S.W.,T3E3X9,Calgary,AB,(403) 242-2896,,ccesoffice@pallisersd.ab.ca,Elementary,N,N,Y,N,N,{5D6AC4DC-2250-49EF-9B18-D4EA7B6CDBCC},POINT (-114.1589506 51.0274677)
The Calgary School Division,Chris Akkerman School,5004 Marbank Dr NE,T2A3J6,Calgary,AB,(403) 777-8120,,chrisakkerman@cbe.ab.ca,Elementary,N,N,Y,N,N,{9315FC2E-84E5-4F88-978B-5980E3C01F28},POINT (-113.963011 51.0637573)
The Calgary Roman Catholic Separate School Division,St. Thomas Aquinas School,4540 - 26 Avenue S.W.,T3E0R1,Calgary,AB,(403) 500-2027,,stthomasaquinas@cssd.ab.ca,Elementary,N,N,Y,N,N,{D990D32A-2589-48A6-AD26-13C3A0FA6DC8},POINT (-114.1518544 51.0309722)
The Calgary School Division,Ranchlands School,610 Ranchlands Blvd NW,T3G2C5,Calgary,AB,(403) 777-6350,,ranchlands@cbe.ab.ca,Elementary,N,N,Y,N,N,{0938369C-16FC-4EAB-9985-3A7D8F68BE21},POINT (-114.1792097 51.1187048)
The Calgary School Division,Ron Southern School,483 Silverado Blvd SW,T2X2E2,Calgary,AB,(403) 817-3576,,ronsouthern@cbe.ab.ca,Elementary,N,N,Y,N,N,{D225EA9E-79D1-4C00-9EA5-D7A67287AB86},POINT (-114.0856882 50.8809318)
The Calgary School Division,Somerset School,150 Somerset Manor SW,T2Y4S2,Calgary,AB,,,somerset@cbe.ab.ca,Elementary,N,N,Y,N,N,{01B5F73E-970F-4E68-A109-559A6B6850C2},POINT (-114.0848851 50.8974058)
The Calgary School Division,Deer Run School,2127  146 Ave SE,T2J6P8,Calgary,AB,(403) 777-6840,,deerrun@cbe.ab.ca,Elementary,N,N,Y,N,N,{B463A4E6-9A06-42AC-9BB2-3D16489ADA0E},POINT (-114.0094545 50.9215554)
Asasa Learning,Little Angels,599 Northmount Dr NW,T2K3J6,Calgary,AB,(403) 285-9277,,,Unknown,N,N,N,N,N,{15CACBBC-C1B1-4DEC-8CAB-620853427F4C},POINT (-114.0880221 51.0871733)
Alberta Chung Wah School Society,Alberta Chung Wah School,"#270, 328 Centre Street S.E.",T2G4X6,Calgary,AB,(403) 271-8033,,office@albertachungwahschool.ca,Unknown,N,N,N,N,N,{66FFE2FD-B698-40B9-8AE8-8B83D6577DD0},POINT (-114.0617383 51.049565)
The Calgary School Division,Crossing Park School,500 Martindale Blvd NE,T3J4W8,Calgary,AB,(403) 777-7195,,crossingpark@cbe.ab.ca,Elementary/Junior High,N,N,Y,Y,N,{E0051AEC-CAC8-4C58-82FC-0E98418251BA},POINT (-113.9663237 51.1156922)
Almadina School Society,"Almadina Language Charter Academy, Mountain View Campus",2031 Sable Drive S.E.,T2B1R9,Calgary,AB,(403) 543-5074,,,Elementary,N,N,Y,N,N,{6D789CD5-D634-43C2-9D7B-05E6FAB64254},POINT (-113.986831 51.0322005)
The Calgary School Division,Nose Creek School,135 Covepark Sq NE,T3K5W9,Calgary,AB,(403) 817-3360,,,Elementary/Junior High,N,N,Y,Y,N,{F8666102-ED88-425A-8687-C37632060148},POINT (-114.0606997 51.1671496)
Foundations for the Future Charter Academy Charter School Society,FFCA High School Campus,2116 McKay Road N.W.,T3B1C7,Calgary,AB,(403) 243-3316,,wanda.amundson@ffca-calgary.com,Junior High/Senior High,N,N,N,Y,Y,{08021EEB-E2FD-4D0B-8E5A-2B9542364656},POINT (-114.1518221 51.0702014)
The Calgary School Division,Louise Dean School,120  23 St NW,T2N2P1,Calgary,AB,(403) 777-7630,,louisedean@cbe.ab.ca,Senior High,N,N,N,N,Y,{ADA423DC-A796-41BF-A361-FD969F1C36EB},POINT (-114.1146825 51.0531507)
The Calgary School Division,Lord Beaverbrook High School,9019 Fairmount Dr SE,T2H0Z4,Calgary,AB,(403) 259-5585,,lordbeaverbrook@cbe.ab.ca,Senior High,N,N,N,N,Y,{0C17DF87-C57B-4104-9B13-BCECEE09AD7E},POINT (-114.0616396 50.9730998)
The Calgary School Division,Annie Gale School,577 Whiteridge Way NE,T1Y4S8,Calgary,AB,(403) 777-7680,,anniegale@cbe.ab.ca,Elementary/Junior High,N,N,Y,Y,N,{233F9601-C0BB-4797-AC95-BD6C3B4850F1},POINT (-113.9689428 51.0890726)
The Calgary School Division,Children's Village School,1210 Russet Rd NE,T2E5L5,Calgary,AB,(403) 777-6114,,ChildrensVillage@cbe.ab.ca,Elementary,N,N,Y,N,N,{D7843DA1-088C-4F03-9953-A0F1E33275D5},POINT (-114.0419644 51.0638688)
Rundle College Society,Rundle Studio,7375 - 17 Avenue SW,T3H3W5,Calgary,AB,(403) 291-3866,,contactus@rundle.ab.ca,Junior High/Senior High,N,N,N,Y,Y,{0C0DB958-2875-48CD-B6B9-9DC2FBB256D8},POINT (-114.1939221 51.0368941)
The Calgary School Division,Robert Thirsk High School,8777 Nose Hill Dr NW,T3G5T3,Calgary,AB,,,RobertThirskHigh@cbe.ab.ca,Senior High,N,N,N,N,Y,{0E0B1FA8-D06B-456B-9CED-F16B89760E38},POINT (-114.1947783 51.1308413)
The Calgary Roman Catholic Separate School Division,Apostles of Jesus,15 Skyview Ranch Street NE,T3N1H6,Calgary,AB,(403) 500-2129,,apostlesofjesus@cssd.ab.ca,Elementary/Junior High,N,N,Y,Y,N,{2EF868BE-EA28-4B61-8EC0-E33AA02C2E7E},POINT (-113.9565131 51.1584173)
The Calgary School Division,Glenbrook School,4725 33 Ave. S.W.,T3E3V1,Calgary,AB,(403) 777-8320,,glenbrook@cbe.ab.ca,Elementary,N,N,Y,N,N,{FB337D4C-B6B5-460C-996A-982752C9B1BA},POINT (-114.1549975 51.0235114)
The Calgary School Division,Canyon Meadows School,395 Canterbury Dr SW,T2W1J1,Calgary,AB,(403) 777-8600,,canyonmeadows@cbe.ab.ca,Elementary,N,N,Y,N,N,{48948DBB-F94C-41DF-A20B-2D120520432D},POINT (-114.0780912 50.9474104)
North Point School for Boys,North Point School for Boys,2445 - 23 Avenue SW,T2T0W3,Calgary,AB,(403) 744-5214,,,Elementary/Junior High,N,N,Y,Y,N,{92DB1777-E928-4227-9DE4-662C7D82EB7E},POINT (-114.1174839 51.0325564)
The Calgary School Division,Louis Riel School,9632 Oakfield Dr SW,T2V0L1,Calgary,AB,(403) 777-7650,,louisriel@cbe.ab.ca,Elementary/Junior High,N,N,Y,Y,N,{9405ECE8-E0C3-4F22-A572-2D6AF41E5E6B},POINT (-114.1322579 50.9667311)
The Calgary School Division,Robert Warren School,12424 Elbow Dr SW,T2W1H2,Calgary,AB,(403) 777-7690,,robertwarren@cbe.ab.ca,Elementary/Junior High,N,N,Y,Y,N,{74A5FDE9-3AA5-4A36-896D-0942C702A017},POINT (-114.0848171 50.9425217)
The Calgary School Division,Stanley Jones School,950 6 St NE,T2E8M3,Calgary,AB,(403) 777-6800,,Stanleyjones@cbe.ab.ca,Elementary/Junior High,N,N,Y,Y,N,{542B3E05-02DF-45CF-AB61-4B35A52E2E94},POINT (-114.0477073 51.0599054)
The Calgary Roman Catholic Separate School Division,Our Lady of Peace Elementary Junior High School,14826 Millrise Hill S.W.,T2Y2B4,Calgary,AB,(403) 500-2097,,olp@cssd.ab.ca,Elementary/Junior High,N,N,Y,Y,N,{31AF9FC8-5488-4542-8DD0-96371906C2FB},POINT (-114.0877102 50.9184851)
New Heights School and Learning Services Society,New Heights School and Learning Services,2521 Dieppe Ave SW,T3E7M1,Calgary,AB,(403) 240-1312,,info@newheightscalgary.com,Elementary/Junior High/Senior High,N,N,Y,Y,Y,{44841B1D-7F39-48E1-B713-22BC296FF907},POINT (-114.1221707 51.0184736)
The Calgary Roman Catholic Separate School Division,Monsignor A. J. Hetherington Elementary School,4 Coral Springs Boulevard N.E,T3J3J3,Calgary,AB,(403) 500-2036,,msgrhetherington@cssd.ab.ca,Elementary,N,N,Y,N,N,{0E5F6EEA-A2D2-4F83-A0C4-BE02D67C2D1F},POINT (-113.9340476 51.0995523)
The Calgary School Division,CLS James Fowler Writing Centre,4004 4 St NE,T2K1A1,Calgary,AB,(403) 230-4743,,chinooklearning@cbe.ab.ca,Unknown,N,N,N,N,N,{EDA2C45D-146C-49FA-A341-8A0C87915079},POINT (-114.0705163 51.0865321)
The Calgary School Division,Guy Weadick School,5612 Templehill Rd NE,T1Y4W7,Calgary,AB,(403) 777-6740,,guyweadick@cbe.ab.ca,Elementary,N,N,Y,N,N,{264A013E-7CF9-419C-9309-C39021AC5610},POINT (-113.9529749 51.0869883)
The Calgary Roman Catholic Separate School Division,Bishop Carroll High School,4624 Richard Road S.W.,T3E6L1,Calgary,AB,(403) 500-2056,,bishopcarroll@cssd.ab.ca,Senior High,N,N,N,N,Y,{FD4CCA9E-F56C-4233-AD66-DC4E72EF5B3C},POINT (-114.1207915 51.0126936)
The Calgary School Division,Citadel Park School,808 Citadel Dr NW,T3G4B8,Calgary,AB,(403) 777-8063,,citadel@cbe.ab.ca,Elementary,N,N,Y,N,N,{0BE06C23-C634-466A-B3C3-4F61A5FFE290},POINT (-114.1742345 51.1454511)
Calgary Waldorf School Society,Calgary Waldorf School,515 Cougar Ridge Drive S.W.,T3H5G9,Calgary,AB,(403) 287-1868,,principal@calgarywaldorf.org,Elementary/Junior High,N,N,Y,Y,N,{E8181031-D10C-4C21-96CC-61E34B613C1D},POINT (-114.2183262 51.0723494)
The Calgary School Division,West Dover School,3113  30 Avenue SE,T2B0G9,Calgary,AB,(403) 777-8260,,westdover@cbe.ab.ca,Elementary,N,N,Y,N,N,{E64A3A7A-C0EE-4B46-9F21-D80211717B9A},POINT (-113.990648 51.0263292)
The Calgary School Division,Jack James High School,5105  8 Ave SE,T2A4M1,Calgary,AB,(403) 248-4054,,jackjames@cbe.ab.ca,Senior High,N,N,N,N,Y,{3C32FAD5-AC65-42F8-8A86-2592FE1871C3},POINT (-113.9603709 51.0445688)
The Pembina Hills School Division,Vista Virtual School South,341 -  58 Avenue SE,,Calgary,AB,(855) 974-5333,,steven.kaplan@pembinahills.ca,Unknown,N,N,N,N,N,{C0782FD0-BC4B-48EA-8400-D67083D7C47C},POINT (-114.0576597 51.0004854)
The Calgary School Division,Project Trust,3610 - 9th Street SE,T2M4P6,Calgary,AB,(403) 777-6107,,discoveringchoices@cbe.ab.ca,Unknown,N,N,N,N,N,{DFCEA696-52E4-4803-9FCD-3932F764D9FF},POINT (-114.0828403 51.0720702)
The Calgary Roman Catholic Separate School Division,St. Alphonsus Elementary Junior High School,928 Radnor Avenue N.E.,T2E5H5,Calgary,AB,(403) 500-2016,,stalphonsus@cssd.ab.ca,Elementary/Junior High,N,N,Y,Y,N,{272382D3-B13B-4093-B56C-9C80404C373B},POINT (-114.0414183 51.0645497)
Foundations for the Future Charter Academy Charter School Society,Northwest Elementary Campus,719-44 Ave NW,T2K0J5,Calgary,AB,(403) 282-5202,,,Elementary,N,N,Y,N,N,{5F94D40E-3B0F-4CC8-BE61-447FD1B11198},POINT (-114.0780594 51.0931727)
The Calgary School Division,Cranston School,205 Cranston Drive SE,T3M1E8,Calgary,AB,(403) 777-6267,,cranston@cbe.ab.ca,Elementary,N,N,Y,N,N,{329864C5-BE1B-4BC0-92FE-D702BB3385BC},POINT (-113.9872418 50.8867871)
The Calgary Roman Catholic Separate School Division,Monsignor E. L. Doyle Elementary School,8887 Scurfield Drive NW,T3L1H6,Calgary,AB,(403) 500-2098,,,Elementary,N,N,Y,N,N,{FD7E567B-D11F-45CB-96E8-E8F9AE48D814},POINT (-114.2164244 51.1220284)
The Calgary School Division,Dr. E. W. Coffin School,5615 Barrett Dr NW,T2L1W4,Calgary,AB,(403) 777-6190,,drewcoffin@cbe.ab.ca,Elementary,N,N,Y,N,N,{9AEEC9DE-8493-49ED-8EBA-C86E92295639},POINT (-114.1347991 51.1037526)
The Calgary School Division,Cecil Swanson School,4820 Rundlewood Dr NE,T1Y5V9,Calgary,AB,(403) 777-6690,,cecilswanson@cbe.ab.ca,Elementary,N,N,Y,N,N,{7479B89B-EB1C-4541-896A-91D201E9E692},POINT (-113.9675431 51.0741822)
The Calgary Roman Catholic Separate School Division,Mother Mary Greene School,115 Edenwold Drive N.W.,T3A3S8,Calgary,AB,(403) 500-2095,,mothermarygreene@cssd.ab.ca,Elementary,N,N,Y,N,N,{883C877E-68E0-418D-90E0-8824615043E6},POINT (-114.1392982 51.1242842)
"Maria Montessori Education Centre of Calgary, Ltd.",Maria Montessori School - cSPACE King Edward Location,cSPACE Projects  1721-29 Avenue SW,T2T6T7,Calgary,AB,(403) 668-8538,,info@mmec.ca,Unknown,N,N,N,N,N,{0B12D129-66D0-4133-B2BC-75590D9D3833},POINT (-114.1008834 51.0272699)
The Calgary School Division,Nickle School,2500 Lake Bonavista Dr SE,T2J2Y6,Calgary,AB,(403) 777-7720,,nickle@cbe.ab.ca,Junior High,N,N,N,Y,N,{32D2CDF3-F3DA-4CCB-AA93-B034EF84BB08},POINT (-114.0614348 50.9407367)
The Calgary School Division,Thorncliffe School,5646 Thornton Rd NW,T2K3B9,Calgary,AB,(403) 777-6670,,thorncliffe@cbe.ab.ca,Elementary,N,N,Y,N,N,{C9A1C39E-C89F-4863-860E-85B7AB2B3F7B},POINT (-114.0670966 51.1023231)
Montessori School of Calgary,Montessori School of Calgary,2201 Cliff Street S.W.,T2S2G4,Calgary,AB,(403) 229-1011,,info@msofc.ca,Elementary,N,N,Y,N,N,{EFA92996-1091-4978-B046-12010CFD85E0},POINT (-114.0760776 51.033361)
The Calgary School Division,Valley View School,4105  26 Ave SE,T2B0C6,Calgary,AB,(403) 777-8250,,valleyview@cbe.ab.ca,Elementary,N,N,Y,N,N,{C6221BD7-69E1-4FA6-A1D0-7E71C65B5747},POINT (-113.9752778 51.0300546)
The Calgary School Division,Prince of Wales School,253 Parkland Way SE,T2J3Y9,Calgary,AB,(403) 777-6880,,princeofwales@cbe.ab.ca,Elementary,N,N,Y,N,N,{C00FF8B2-E323-49A9-A7FA-EFFAADC2839D},POINT (-114.033308 50.9247642)
The Calgary School Division,Colonel Macleod School,1610  6 St NE,T2E3Y9,Calgary,AB,(403) 777-7500,,colonelmacleod@cbe.ab.ca,Elementary/Junior High,N,N,Y,Y,N,{9D656091-D52D-4640-8BA3-3466380C7CEE},POINT (-114.0476454 51.0661828)
The Calgary School Division,Peter Lougheed School,148 Saddletree Close NE,T3J5J1,Calgary,AB,(403) 817-3508,,peterlougheed@cbe.ab.ca,Elementary/Junior High,N,N,Y,Y,N,{94F4B3F8-0F42-4431-AD61-0275EE2E2A71},POINT (-113.9556832 51.1306696)
The Pembina Hills School Division,Vista Virtual School,341 - 58 Avenue SE,,Calgary,AB,,,vvsupport@pembinahills.ca,Elementary/Junior High/Senior High,N,N,Y,Y,Y,{0D70F71F-0860-4FBA-B834-99D5F66BF37B},POINT (-114.0576597 51.0004854)
Foundations for the Future Charter Academy Charter School Society,Southeast Elementary Campus,9711 Academy Drive SE,T2J1A9,Calgary,AB,(430) 258-2728,,,Elementary,N,N,Y,N,N,{2A254863-23E1-4E79-8CBD-7602D34462B0},POINT (-114.0454063 50.9672419)
The Calgary School Division,Rosemont School,19 Rosevale Dr NW,T2K1N6,Calgary,AB,(403) 777-6230,,rosemont@cbe.ab.ca,Elementary,N,N,Y,N,N,{7111FC21-BFD9-4725-A8FA-70B69A66E3D4},POINT (-114.0923733 51.0778712)
Phoenix Education Foundation,Phoenix Education Foundation,320 19 Street S.E.,T2E6J6,Calgary,AB,(403) 265-7701,,info@phoenixfoundation.ca,Elementary/Junior High/Senior High,N,N,Y,Y,Y,{6D064FB8-47F4-49A8-9639-DF97AFE93575},POINT (-114.0078257 51.0502642)
The Calgary Roman Catholic Separate School Division,St. Albert the Great,225 Prestwick Ave SE,T2Z3X3,Calgary,AB,(403) 500-2114,,stalbert@cssd.ab.ca,Elementary/Junior High,N,N,Y,Y,N,{87E9ED82-8F64-4D35-A23B-8ADC21E6424F},POINT (-113.9600758 50.9215097)
The Calgary School Division,Dr. Roberta Bondar School,1580 Strathcona Dr SW,T3H5B1,Calgary,AB,(403) 817-3564,,drrobertabondar@cbe.ab.ca,Elementary,N,N,Y,N,N,{638B8D50-ADED-49EC-ADA6-4190EC7425D4},POINT (-114.2055305 51.0503367)
The Calgary Roman Catholic Separate School Division,Monsignor J. J. O'Brien,99 Bridlewood Road SW,T2Y4J5,Calgary,AB,(403) 500-2104,,msgrobrien@cssd.ab.ca,Elementary/Junior High,N,N,Y,Y,N,{AD99AE25-EB47-4D0A-AF1C-A3CA545EBADE},POINT (-114.1038587 50.9015663)
The Calgary School Division,Abbeydale School,320 Abergale Dr NE,T2A6W2,Calgary,AB,(403) 777-6970,,Abbeydale@cbe.ab.ca,Elementary,N,N,Y,N,N,{90C13878-0A02-4243-8B98-B5C88DA31C6C},POINT (-113.9298486 51.0566252)
The Calgary Roman Catholic Separate School Division,St. Isidore Online School,124 24 Ave NE,T2E1W6,Calgary,AB,(403) 500-2138,,stisidore@cssd.ab.ca,Elementary/Junior High/Senior High,N,N,Y,Y,Y,{AED94B62-3AC8-41E7-B2D3-379F57013951},POINT (-114.0611329 51.0744911)
The Calgary School Division,Wildwood School,120  45 St SW,T3C2B3,Calgary,AB,(403) 777-8430,,wildwood@cbe.ab.ca,Elementary,N,N,Y,N,N,{91880848-27FD-4FA5-976E-E4FBCEABEC83},POINT (-114.1521166 51.0515895)
The Calgary Roman Catholic Separate School Division,Bishop O'Byrne High School,Suite 500  333 Shawville Boulevard S.E.,T2Y4H3,Calgary,AB,(403) 500-2103,,bishopobyrne@cssd.ab.ca,Senior High,N,N,N,N,Y,{4274EF93-665E-4D9D-A956-4E8E30E4AF7F},POINT (-114.0645668 50.8980918)
The Calgary School Division,William Reid School,1216  36 Ave SW,T2T2E9,Calgary,AB,(403) 777-6940,,williamreid@cbe.ab.ca,Elementary,N,N,Y,N,N,{D9B27EFA-724C-4348-A8D7-EE7E102A7C69},POINT (-114.0903428 51.0221745)
The Calgary Roman Catholic Separate School Division,St. Damien School,3619 - 28 Street S.E.,T2B2J1,Calgary,AB,(403) 500-2073,,stdamien@cssd.ab.ca,Elementary,N,N,Y,N,N,{5B5889F7-3C71-4418-8080-3DA19E7E7FA8},POINT (-113.9922281 51.0219202)
The Calgary School Division,Central Memorial High School,5111  21 St SW,T3E1R9,Calgary,AB,(403) 243-8880,,centralmemorial@cbe.ab.ca,Senior High,N,N,N,N,Y,{F9600FFA-DB98-41F7-9449-3E66DC23D500},POINT (-114.1135205 51.0079279)
The Calgary Roman Catholic Separate School Division,St. Teresa of Calcutta School,St. Teresa School 121 Midlake,T2X1T7,Calgary,AB,(403) 500-2078,,stteresa@cssd.ab.ca,Elementary,N,N,Y,N,N,{7351634A-6FEC-43A2-A1D3-DA6B140917E6},POINT (-114.0520832 50.9143778)
The Calgary School Division,Mount View School,2004  4 St NE,T2E3T8,Calgary,AB,(403) 777-6300,,mountview@cbe.ab.ca,Elementary,N,N,Y,N,N,{3A53C012-F0FF-45F4-842E-2FEE55B54B5F},POINT (-114.0520619 51.0696254)
The Calgary School Division,Alex Ferguson School,1704  26 St SW,T3C1K5,Calgary,AB,(403) 777-8270,,alexanderferguson@cbe.ab.ca,Elementary,N,N,Y,N,N,{ECCFDF93-5D40-4470-B175-5F05F782B69C},POINT (-114.1229836 51.0393638)
The Calgary Roman Catholic Separate School Division,St. Isabella School,855 Copperfield Blvd SE,T2Z4W8,Calgary,AB,(403) 500-2123,,stisabella@cssd.ab.ca,Elementary/Junior High,N,N,Y,Y,N,{3463F784-9364-4089-8F90-C725D71C1B7B},POINT (-113.935989 50.9105832)
The Southern Francophone Education Region,École du Nouveau-Monde,220 Scenic Acres Drive NW,T3L0E7,Calgary,AB,(403) 910-3851,,nouveaumonde@francosud.ca,Elementary,N,N,Y,N,N,{27A81709-9366-4BFB-80DB-BC7C857F2829},POINT (-114.215124 51.111596)
Janus Academy Society,Janus Academy,200 - 403 33 Street NE,T2A1X5,Calgary,AB,(403) 262-3333,,janus.contact@janusacademy.org,Elementary/Junior High,N,N,Y,Y,N,{4F13D0AA-5ED9-4A36-9646-7DE50A2264CA},POINT (-113.9875326 51.0553661)
The Calgary School Division,Elboya School,4804  6 St SW,T2S2N3,Calgary,AB,(403) 777-7760,,elboya@cbe.ab.ca,Elementary/Junior High,N,N,Y,Y,N,{E718E6AB-C2EE-47D0-8178-DD237DB93600},POINT (-114.0782137 51.0108834)
The Calgary Roman Catholic Separate School Division,Corpus Christi School,5607 Thornton Road N.W.,T2K3C1,Calgary,AB,(403) 500-2023,,corpuschristi@cssd.ab.ca,Elementary,N,N,Y,N,N,{EF9450EA-3B95-49B2-B972-7DAD9C3F5BD0},POINT (-114.0680318 51.1015969)
The Calgary School Division,Acadia School,9603  5 St SE,T2J1K4,Calgary,AB,(403) 777-8440,,,Elementary,N,N,Y,N,N,{448748BC-1190-4C7B-A30E-466FF32BB691},POINT (-114.0539269 50.9676106)
The Calgary Jewish Academy,Calgary Jewish Academy,6700 Kootenay Street S.W.,T2V1P7,Calgary,AB,(403) 253-3992,,officeadmin@cja.ab.ca,Elementary/Junior High,N,N,Y,Y,N,{A75092DA-D61C-4FD0-BF09-313BA8B5CF07},POINT (-114.0926065 50.9934947)
The Calgary Roman Catholic Separate School Division,St. Monica School,235 - 18 Avenue S.W.,T2S0C2,Calgary,AB,(403) 500-2001,,Stmonica@cssd.ab.ca,Elementary/Junior High,N,N,Y,Y,N,{8BD076F4-DD93-485E-AC86-4B8AC2D54E0F},POINT (-114.0678144 51.0367698)
The Calgary School Division,Dr. Gordon Higgins School,155 Rundlehill Dr NE,T1Y2W9,Calgary,AB,(403) 777-7060,,drgordonhiggins@cbe.ab.ca,Junior High,N,N,N,Y,N,{E2B4CB8B-7744-4BAD-97E3-3316B8C50EB6},POINT (-113.970664 51.0752697)
The Calgary Roman Catholic Separate School Division,Sacred Heart Elementary School,1312 - 15 Street S.W.,T3C0T6,Calgary,AB,(403) 500-2004,,sacredheart@cssd.ab.ca,Elementary,N,N,Y,N,N,{3033F25B-0A8A-468B-96E0-02A894707473},POINT (-114.0966258 51.0409252)
The Calgary Roman Catholic Separate School Division,Don Bosco School,13615 Deer Ridge Drive S.E.,T2J6S7,Calgary,AB,(403) 500-2057,,donbosco@cssd.ab.ca,Elementary/Junior High,N,N,Y,Y,N,{86D40488-D461-402E-BA85-1F29F15952E2},POINT (-114.0182527 50.9313007)
The Calgary School Division,Patrick Airlie School,1520  39 St SE,T2A1H9,Calgary,AB,(403) 777-8220,,patrickairlie@cbe.ab.ca,Elementary,N,N,Y,N,N,{70C20126-C8DE-4108-925D-A9F7805F240E},POINT (-113.9767839 51.0399114)
Mountain View Academy Society,Mountain View Academy,3915 34 Street NE,T1Y6Z8,Calgary,AB,(403) 217-4346,,office@mountainviewacademy.ca,Elementary/Junior High/Senior High,N,N,Y,Y,Y,{6AD4641E-4D7C-4676-8B9E-D1EDC6D842E4},POINT (-113.9861039 51.0884378)
The Calgary School Division,Discovering Choices II,#101 495 36 ST NE,T2A6K3,Calgary,AB,(403) 777-8384,,discoveringchoices@cbe.ab.ca,Senior High,N,N,N,N,Y,{D7F8656F-C9FD-41F6-8507-E3044B846AA9},POINT (-113.9849703 51.056524)
The Calgary School Division,Wood's Homes School,805 37 ST NW,T3B2B2,Calgary,AB,(403) 270-1751,,woodshomes@cbe.ab.ca,Elementary/Junior High/Senior High,N,N,Y,Y,Y,{55ED65A5-5C4B-47EB-8CE2-96B6234A0BE2},POINT (-114.2242283 51.0960981)
Janus Academy Society,Janus Academy Junior/Senior High School,200 - 403 33 Street NE,T2H1S1,Calgary,AB,(403) 262-3333,,janus.contact@janusacademy.org,Elementary/Junior High/Senior High,N,N,Y,Y,Y,{D4F7CE2C-3C69-46BA-947B-B872C925DD0E},POINT (-114.0562929 50.9774377)
The Calgary School Division,Lakeshore School,133 Auburn Springs Boulevard S,T3M1P6,Calgary,AB,(403) 817-3440,,Lakeshore@cbe.ab.ca,Elementary/Junior High,N,N,Y,Y,N,{80753E65-EEA2-496C-A4F2-34F52E5EAF0F},POINT (-113.953794 50.8959118)
The Calgary School Division,Nelson Mandela High School,45 Saddletowne Cir NE,T3J4W3,Calgary,AB,(403) 817-3500,,nelsonmandelahigh@cbe.ab.ca,Senior High,N,N,N,N,Y,{80CB9D59-0B1B-44F2-87D9-4018ACB7B3A7},POINT (-113.9488457 51.1219806)
The Calgary School Division,Vincent Massey School,939  45 St SW,T3C2B9,Calgary,AB,(403) 777-7870,,vincentmassey@cbe.ab.ca,Junior High,N,N,N,Y,N,{109D5079-5A1B-4CF2-AE64-C25AA9C09777},POINT (-114.1534231 51.0440373)
North Point School for Boys,North Point School - DSEPS,2445 23 Ave SW,T2T0W3,Calgary,AB,(403) 744-5214,,,Elementary/Junior High/Senior High,N,N,Y,Y,Y,{C3F8BD31-8FE1-436F-AB0F-A32AE2B1570A},POINT (-114.1174839 51.0325564)
The Calgary School Division,Twelve Mile Coulee School,65 Tuscany Hills Rd NW,T3L0C7,Calgary,AB,(403) 817-3390,,TwelveMileCoulee@cbe.ab.ca,Elementary/Junior High,N,N,Y,Y,N,{E8C6CE49-F9F3-4B09-ACFD-0E2D8524B363},POINT (-114.2434801 51.1228362)
The Calgary School Division,Taradale School,170 Taravista Dr NE,,Calgary,AB,(403) 777-6270,,taradale@cbe.ab.ca,Elementary,N,N,Y,N,N,{28C2F49B-9AC2-49D2-90DF-DA232B0F4305},POINT (-113.9377551 51.1212531)
The Calgary Roman Catholic Separate School Division,Father Lacombe School,3615 Radcliffe Drive S.E.,T2A6B4,Calgary,AB,(403) 500-2066,,fatherlacombe@cssd.ab.ca,Senior High,N,N,N,N,Y,{F8608BCC-78DC-4296-AB26-FF4F06ECECC7},POINT (-113.9832447 51.0473809)
The Calgary School Division,Bayside School,15 Auburn Crest Park SE,T3M0Z4,Calgary,AB,(403) 817-3436,,baysideschool@cbe.ab.ca,Elementary,N,N,Y,N,N,{1F76606E-4B57-4C88-908F-7E0D59E6743E},POINT (-113.9475262 50.8882439)
The Calgary Roman Catholic Separate School Division,Holy Family School,904 - 32 St. S.E.,T2A0Z1,Calgary,AB,(403) 500-2054,,holy.family@cssd.ab.ca,Elementary,N,N,Y,N,N,{5909A36F-7DAB-45CB-B5D4-3F497E1CEB89},POINT (-113.9878638 51.0455362)
The Calgary School Division,Emily Follensbee School,5139 14 ST SW,T2T3W5,Calgary,AB,(403) 777-6980,,emilyfollensbee@cbe.ab.ca,Elementary/Junior High,N,N,Y,Y,N,{76D428E7-0490-417C-900A-D73F7C65A181},POINT (-114.0955749 51.0076359)
Renfrew Educational Services Society,Renfrew Educational Services - Park Place Centre,2050 - 21 Street N.E.,T2E6S5,Calgary,AB,(403) 291-5038,,renfrew@renfreweducation.org,Unknown,N,N,N,N,N,{FEFFEB27-2500-4E75-8120-7D8ED5E9BF2D},POINT (-114.0082917 51.069617)
The Prairie Land School Division,Al-Amal Online Academy,9 Royal Vista Drive NW,T3R0N2,Calgary,AB,(825) 996-5399,,al-amal.onlineacademy@plrd.ab.ca,Senior High,N,N,N,N,Y,{D6C67FB9-5ED8-40E2-BA34-AF51E29A37F4},POINT (-114.2075428 51.1507322)
The Calgary School Division,Riverside School,107 6A St NE,T2E0B7,Calgary,AB,(403) 777-7350,,Riverside@cbe.ab.ca,Elementary/Junior High,N,N,Y,Y,N,{944A0B08-AD02-4071-B02E-2C7FD56C66D7},POINT (-114.0477096 51.0528507)
The Calgary School Division,William Aberhart High School,3009 Morley Trail NW,T2M4G9,Calgary,AB,(403) 289-2551,,williamaberhart@cbe.ab.ca,Senior High,N,N,N,N,Y,{1324BB98-3E35-4166-B9DE-A9221CBDF0EC},POINT (-114.1153375 51.0786695)
The Calgary School Division,Hidden Valley School,10959 Hidden Valley Dr  NW,T3A6J2,Calgary,AB,(403) 777-7236,,,Elementary,N,N,Y,N,N,{6187876A-A5B7-4D95-90A6-8C3DBBDA7184},POINT (-114.11959 51.1502538)
The Calgary School Division,West Springs School,8999 Wentworth Ave SW,T3H0P7,Calgary,AB,(403) 777-6244,,,Elementary,N,N,Y,N,N,{7D426DF1-62D3-4254-841B-ED37FE44EBDB},POINT (-114.2167498 51.0584378)
The Calgary School Division,Haysboro School,1123  87 Avenue SW,T2V0W2,Calgary,AB,(403) 777-8530,,haysboro@cbe.ab.ca,Elementary,N,N,Y,N,N,{07EA415E-8F0B-4E88-93D4-9924EC19D4AD},POINT (-114.0891358 50.9754952)
The Calgary Roman Catholic Separate School Division,St. Philip School,13825 Parkside Drive S.E.,T2J5A8,Calgary,AB,(403) 500-2072,,stphilip@cssd.ab.ca,Elementary,N,N,Y,N,N,{54F8F79E-7011-4896-BB91-A19AAE33BB9C},POINT (-114.0382746 50.9278826)
Philippine Cultural Center Foundation (Calgary),Filipino Language and Cultural School of Calgary,"Bay 204 & 206 
4656 Westwinds Dr NE",T3J3Z5,Calgary,AB,,,abdacanay@shaw.ca,Unknown,N,N,N,N,N,{2D96F04A-2F84-4A69-8993-70AFBB86D564},POINT (-113.9678004 51.100647)
The Calgary School Division,Panorama Hills School,1057 Panorama Hills Dr NW,T3K0S4,Calgary,AB,(403) 777-6061,,panoramahills@cbe.ab.ca,Elementary,N,N,Y,N,N,{351C7DB1-B5B0-418F-B3E2-2C7BED36EB8C},POINT (-114.0859214 51.155814)
The Calgary Roman Catholic Separate School Division,Holy Cross Elementary Junior High School,3719 - 26 Avenue S.E.,T2B0C6,Calgary,AB,(403) 500-2033,,holycross@cssd.ab.ca,Elementary/Junior High,N,N,Y,Y,N,{053C6CE2-3FDD-4DC1-ABBD-236267AB32E9},POINT (-113.9795625 51.0300554)
Foothills Academy Society,Foothills Academy,745 - 37 Street N.W.,T2N4T1,Calgary,AB,(403) 270-9400,,abarber@foothillsacademy.org,Elementary/Junior High/Senior High,N,N,Y,Y,Y,{EFABF855-4E4E-49D0-BD82-68F18412BD99},POINT (-114.1423066 51.0640722)
The Calgary Roman Catholic Separate School Division,St. Gemma Outreach High School,38 - 3250 Sunridge Way NE,T1Y7K4,Calgary,AB,(403) 500-2140,,stgemma@cssd.ab.ca,Senior High,N,N,N,N,Y,{85E293B6-DEB8-435C-8363-C87D35D926DC},POINT (-113.9901364 51.0696387)
The Calgary School Division,Riverbend School,65 Rivervalley Dr SE,T2C3Z7,Calgary,AB,(403) 777-6510,,riverbend@cbe.ab.ca,Elementary,N,N,Y,N,N,{D8C9C2E5-2567-4CC2-9DE1-14C4A24FF0D7},POINT (-114.0185021 50.9721562)
The Calgary School Division,AADAC Youth Services,1005 - 17 Street N.W.,T2N2E5,Calgary,AB,(403) 297-4664,,AADAC@cbe.ab.ca,Unknown,N,N,N,N,N,{FFE994C1-9C93-462C-9EDF-A9B1A104CF1B},POINT (-114.1016819 51.0612611)
The Calgary Roman Catholic Separate School Division,St. Catherine Elementary School,11 Canata Close S.W.,T2W1P6,Calgary,AB,(403) 500-2061,,stcatherine@cssd.ab.ca,Elementary,N,N,Y,N,N,{79C6E09F-5278-445B-8CBE-F68EC85CDF76},POINT (-114.0864888 50.9438465)
The Calgary School Division,Willow Park School,343 Willow Park Dr SE,T2J0K7,Calgary,AB,(403) 777-6900,,willowpark@cbe.ab.ca,Elementary/Junior High,N,N,Y,Y,N,{FDD16D87-F55E-457E-AFC3-F00B8FAF1733},POINT (-114.0606873 50.9577962)
The Calgary School Division,Le Roi Daniels School,47 Fyffe Rd SE,T2H1B9,Calgary,AB,(403) 777-6420,,leroidaniels@cbe.ab.ca,Elementary,N,N,Y,N,N,{5C2D1B88-ABB5-4C8C-8633-2844342CADC4},POINT (-114.0579556 50.9838584)
The Calgary School Division,CBe-learn,2336 53 Avenue SW,T3E1L2,Calgary,AB,(403) 777-7971,,cbelearn@cbe.ab.ca,Elementary/Junior High/Senior High,N,N,Y,Y,Y,{4F6E97E6-0D02-463C-A379-72929FED7041},POINT (-114.1139277 51.0065169)
The Calgary School Division,Dr. George Stanley School,585 Cranston Dr SE,T3M0J4,Calgary,AB,(403) 817-3556,,drgeorgestanley@cbe.ab.ca,Elementary/Junior High,N,N,Y,Y,N,{68C6F804-B7BF-4D6D-9F63-3017E399894E},POINT (-113.9782889 50.8827772)
The Canadian Montessori School Ltd.,Canadian Montessori School West,1112 - 70 Avenue S.W.,T2V0P6,Calgary,AB,(403) 252-3281,,admin@calgarymontessorischool.com,Unknown,N,N,N,N,N,{C9F4FB91-5687-4CF2-9544-BEE24134CB7C},POINT (-114.0882622 50.9907447)
The Calgary School Division,Braeside School,1747  107 Ave SW,T2W0C3,Calgary,AB,(403) 777-8470,,braeside@cbe.ab.ca,Elementary,N,N,Y,N,N,{5C8FD38A-725C-4B2C-BDFF-1232AAAC3EBE},POINT (-114.1016943 50.9566736)
The Calgary School Division,Falconridge School,1331 Falconridge Dr NE,T3J1T4,Calgary,AB,(403) 777-6730,,falconridge@cbe.ab.ca,Elementary,N,N,Y,N,N,{401FA010-7667-430C-9946-595977831AF2},POINT (-113.9454326 51.0993641)
The Calgary Roman Catholic Separate School Division,Our Lady of Fatima,6320 Taralea Park NE,T3J5C4,Calgary,AB,(403) 500-2112,,ourladyoffatima@cssd.ab.ca,Elementary,N,N,Y,N,N,{13FCCAA5-C292-41C1-9F8B-FFBA70B20578},POINT (-113.9379102 51.1163217)
The Southern Francophone Education Region,École de la Source,360 - 94 Avenue S.E.,T2J0E8,Calgary,AB,(403) 255-6724,,,Elementary/Junior High,N,N,Y,Y,N,{88565DE8-B8C2-4836-8A25-206DCFE0198A},POINT (-114.0618249 50.969234)
The Calgary School Division,Annie Foote School,6320 Temple Dr NE,T1Y5V5,Calgary,AB,(403) 777-6680,,anniefoote@cbe.ab.ca,Elementary,N,N,Y,N,N,{988E18D2-F738-4F8F-BBF9-0E2C41EEF293},POINT (-113.9403303 51.0859886)
The Calgary School Division,CLS Lord Beaverbrook Writing Centre,9019 Fairmount Dr.  S.E.,T2H0Z4,Calgary,AB,(403) 259-5585,,chinooklearning@cbe.ab.ca,Unknown,N,N,N,N,N,{84A27F37-B1B3-48B2-A6F0-F63D781ADF2F},POINT (-114.0616396 50.9730998)
The Calgary School Division,Sunnyside School,211 7 St NW,T2N1S2,Calgary,AB,(403) 777-6390,,sunnyside@cbe.ab.ca,Elementary,N,N,Y,N,N,{8DE108B1-6F9E-41DC-93D6-6306A143D21D},POINT (-114.0795441 51.0565624)
The Calgary School Division,Jennie Elliott School,3031 Lindsay Dr SW,T3E6A9,Calgary,AB,(403) 777-8350,,jennieelliott@cbe.ab.ca,Elementary,N,N,Y,N,N,{657D65A6-B1DE-441C-B34E-4D7334CC6676},POINT (-114.1272286 50.9961296)
The Calgary Roman Catholic Separate School Division,St. Gianna School,800 Auburn Bay Blvd SE,T3M0H7,Calgary,AB,(403) 500-2135,,stgianna@cssd.ab.ca,Elementary,N,N,Y,N,N,{A0AEA0A5-E63A-4A61-A92B-A1B29D1FDBFE},POINT (-113.968031 50.8955137)
The Calgary School Division,Juno Beach Academy of Canadian Studies,315 - 86 Avenue SE,T2H1Z2,Calgary,AB,(403) 777-7210,,junobeachacademy@cbe.ab.ca,Unknown,N,N,N,N,N,{6CCDA2A9-9490-429A-91F1-B7580B529CFD},POINT (-114.0650625 50.9753211)
The Calgary School Division,Bowness High School,4627  77 St NW,T3B2N6,Calgary,AB,(403) 286-5092,,bowness@cbe.ab.ca,Senior High,N,N,N,N,Y,{DA1741A6-234E-43CE-BFCE-70BD2C6A5EC2},POINT (-114.200251 51.0931753)
Alberta Conference of 7th Day Adventist Church,Chinook Winds Adventist Academy,10101 - 2nd Avenue S.W.,T3B5T2,Calgary,AB,(403) 286-5686,,reception@cwaa.net,Elementary/Junior High/Senior High,N,N,Y,Y,Y,{C62207A5-FAF7-496F-926F-3F38A9BF96FE},POINT (-114.2332662 51.0792342)
The Calgary School Division,Dr. Gladys McKelvie Egbert School,6033 Madigan Dr NE,T2A5G9,Calgary,AB,(403) 777-7780,,drgladysmegbert@cbe.ab.ca,Elementary/Junior High,N,N,Y,Y,N,{FE3E4C6F-2F58-492A-9D68-EEF18B3F655A},POINT (-113.9415291 51.0588922)
Rundle College Society,Rundle College Elementary School,7615 - 17 Ave SW,T3H3W5,Calgary,AB,(403) 282-8411,,contactus@rundle.ab.ca,Elementary,N,N,Y,N,N,{A9DB48FE-F805-4818-8CC6-392B81B4F8E5},POINT (-114.1973197 51.0367131)
The Calgary Roman Catholic Separate School Division,St. Gregory School,5340 - 26 Avenue S.W.,T3E0R6,Calgary,AB,(403) 500-2048,,stgregory@cssd.ab.ca,Junior High,N,N,N,Y,N,{82783014-F039-462B-927B-463349FAA6F1},POINT (-114.1604737 51.0311375)
The Calgary School Division,Briar Hill School,1233  21 St NW,T2N2L8,Calgary,AB,(403) 777-6140,,briarhill@cbe.ab.ca,Elementary,N,N,Y,N,N,{47514DC0-C2BA-4267-8DA5-BB7F6E80E228},POINT (-114.1114185 51.0631133)
Calgary Quest Children's Society,Calgary Quest School,"3405 Spruce Drive S.W. 
c/o Spruce Cliff Elementary",T3C0A5,Calgary,AB,(403) 253-0003,,info@calgaryquestschool.com,Elementary/Junior High/Senior High,N,N,Y,Y,Y,{3355F47D-0A96-4002-83FD-35773334A8DB},POINT (-114.1366387 51.0497215)
The Calgary School Division,Mountain Park School,312 Mt Douglas Close SE,T2Z4Y1,Calgary,AB,(403) 777-6442,,mountainpark@cbe.ab.ca,Elementary/Junior High,N,N,Y,Y,N,{BC129C7F-04CE-4C6E-817E-CCFA616C2838},POINT (-113.9818799 50.9237983)
The Calgary Roman Catholic Separate School Division,St. Francis High School,877 Northmount Drive N.W.,,Calgary,AB,(403) 500-2026,,st.francis@cssd.ab.ca,Senior High,N,N,N,N,Y,{17818BED-AED9-4A96-9A5B-16B8CD3336BB},POINT (-114.1024075 51.0845066)
The Calgary School Division,King George School,2108  10 St NW,T2M3M4,Calgary,AB,(403) 777-6210,,KingGeorge@cbe.ab.ca,Elementary,N,N,Y,N,N,{7A93C327-BBB0-4F71-95A9-97DEBC59AF11},POINT (-114.0840555 51.0708971)
The Calgary School Division,Joane Cardinal-Schubert High School,19480 45 St SE,T3M2P9,Calgary,AB,(403) 817-3600,,saglassford@cbe.ab.ca,Senior High,N,N,N,N,Y,{86F16420-680F-4336-A00B-C6508B8DB0D7},POINT (-113.9440104 50.8780222)
The Calgary School Division,Captain Nichola Goddard School,405 Panatella Blvd NW,T3K0P3,Calgary,AB,(403) 817-3300,,CaptainNicholaGoddard@cbe.ab.ca,Elementary/Junior High,N,N,Y,Y,N,{1012E73A-67EE-4D12-8531-87CF4B830E74},POINT (-114.0886788 51.1624509)
The Palliser School Division,Menno Simons Christian School,7000 Elkton Drive S.W.,T3H4Y7,Calgary,AB,(403) 531-0745,,office@mennosimons.ab.ca,Elementary/Junior High,N,N,Y,Y,N,{8DBF3AEA-6378-45D8-B119-7EC9F5D58107},POINT (-114.188501 51.0242003)
The Calgary School Division,Rideau Park School,829 Rideau Rd SW,T2S0S2,Calgary,AB,(403) 777-7480,,rideaupark@cbe.ab.ca,Elementary/Junior High,N,N,Y,Y,N,{3687DD64-B3EC-4E65-9D18-43DF026122C6},POINT (-114.0755637 51.0252766)
The Calgary Roman Catholic Separate School Division,St. Rita School,7811 Ranchview Drive N.W.,T3G2B3,Calgary,AB,(403) 500-2083,,strita@cssd.ab.ca,Elementary,N,N,Y,N,N,{43E19846-A6CE-4850-980C-1A140ECBDE95},POINT (-114.1817531 51.1198662)
The Calgary School Division,Clarence Sansom School,5840  24 Ave NE,T1Y6G4,Calgary,AB,(403) 777-7700,,clarencesansom@cbe.ab.ca,Elementary/Junior High,N,N,Y,Y,N,{76D4E188-9EE5-405D-A3E9-A2F8E9FCA946},POINT (-113.9491955 51.0746135)
The Calgary School Division,Start Outreach,3610 9th Street SE,T3B5C2,Calgary,AB,(403) 777-6107,,discoveringchoices@cbe.ab.ca,Senior High,N,N,N,N,Y,{E3585476-FE3B-404E-BB39-93A94E789790},POINT (-114.2019032 51.0894295)
The Calgary Roman Catholic Separate School Division,St. Benedict School,10340 - 19 Street S.W.,T2V1R2,Calgary,AB,(403) 500-2053,,stbenedict@cssd.ab.ca,Elementary,N,N,Y,N,N,{54F33D61-0C0A-451D-83FA-A32B3D999C2A},POINT (-114.1054471 50.9619935)
The Calgary School Division,G. W. Skene School,6226 Penbrooke Dr SE,T2A6M7,Calgary,AB,(403) 777-8150,,gwskene@cbe.ab.ca,Elementary,N,N,Y,N,N,{DE1AA0E7-4BFB-49AD-9299-821AEE2127D1},POINT (-113.9452208 51.0456249)
The Calgary Roman Catholic Separate School Division,Ascension of Our Lord,509 Harvest Hills Drive N.E.,T3K4G9,Calgary,AB,(403) 500-2075,,,Elementary/Junior High,N,N,Y,Y,N,{1112355B-740D-4EED-B628-325BAE490F9C},POINT (-114.0596888 51.1469569)
The Calgary Roman Catholic Separate School Division,St. Martha School,6020 - 4 Avenue N.E.,T2A4B1,Calgary,AB,(403) 500-2074,,stmartha@cssd.ab.ca,Elementary/Junior High,N,N,Y,Y,N,{CD1DEDCD-8191-44E3-B2A8-631A6F0CB6F1},POINT (-113.9456359 51.0565433)
The Calgary Roman Catholic Separate School Division,Our Lady of Grace School,736 Evanston Drive,T3P0N7,Calgary,AB,(403) 500-2124,,ourladyofgrace@cssd.ab.ca,Elementary/Junior High,N,N,Y,Y,N,{17EAE3FD-2F05-4001-80C7-34C2B32C2B2D},POINT (-114.1204866 51.1793394)
The Calgary School Division,Glamorgan School,50 Grafton Dr SW,T3E4W3,Calgary,AB,(403) 777-8310,,glamorgan@cbe.ab.ca,Elementary/Junior High,N,N,Y,Y,N,{73FCDBB0-C408-406F-824C-A90CA49C572C},POINT (-114.1453983 51.0153799)
The Palliser School Division,"Calgary Islamic School, Akram Jomaa Campus",2612 - 37 Avenue N.E.,T1Y5L2,Calgary,AB,(403) 248-2773,,,Elementary/Junior High/Senior High,N,N,Y,Y,Y,{805C842E-3213-43D4-8D6F-FA7CD21916BB},POINT (-114.0004774 51.0875899)
The Southern Francophone Education Region,École La Mosaïque,199 Martindale Blvd NE,T3J3G4,Calgary,AB,(403) 277-2344,,,Elementary,N,N,Y,N,N,{67D58C47-957D-45E6-B80A-EDA2E518F4F8},POINT (-113.9575118 51.1137667)
The Calgary School Division,Sir John A. Macdonald School,6600  4 St NW,T2K1C2,Calgary,AB,(403) 777-7670,,sirjohnamacdonald@cbe.ab.ca,Junior High,N,N,N,Y,N,{10388188-4EE5-4052-BF96-4B0C2E358090},POINT (-114.0700457 51.111477)
The Calgary School Division,Altadore School,4506  16 St SW,T2T4H9,Calgary,AB,(403) 777-6910,,altadore@cbe.ab.ca,Elementary,N,N,Y,N,N,{2B687BF9-73E1-47A4-B014-A4E4457ECF9B},POINT (-114.0997332 51.0140027)
The Renert School Foundation,Renert School,14 Royal Vista Link NW,T3R0K4,Calgary,AB,(587) 353-1053,,info@renertschool.ca,Elementary/Junior High/Senior High,N,N,Y,Y,Y,{D3448746-3D71-42C3-8557-5FF7B0A5F5B2},POINT (-114.2028365 51.151837)
The Calgary School Division,All Boys Program,3519  36 Avenue SW,T3E1C2,Calgary,AB,(403) 777-8400,,,Elementary,N,N,Y,N,N,{09345DDE-FD9E-4180-9497-99F2188DD333},POINT (-114.1362258 51.0211798)
The Calgary School Division,Ramsay School,2223 Spiller Rd SE,T2G4G9,Calgary,AB,(403) 777-6790,,ramsay@cbe.ab.ca,Elementary,N,N,Y,N,N,{88D2CB41-A3ED-4C6C-BEEB-8720029EA70F},POINT (-114.0457894 51.0331886)
Horizon Academy Institute,Horizon Heritage Arabic School,199 Queen Charlotte Way SE,T3C3P1,Calgary,AB,(403) 826-4655,,,Unknown,N,N,N,N,N,{A1C946E0-D31C-48D2-B9C4-759F3A966187},POINT (-114.1398093 51.0396757)
The Calgary School Division,Killarney School,3008  33 Street SW,T3E2T9,Calgary,AB,(403) 777-8360,,killarney@cbe.ab.ca,Elementary,N,N,Y,N,N,{882022FB-F791-4F14-94B9-5BE8DAEA24CE},POINT (-114.1347293 51.0281934)
The Calgary School Division,Banff Trail School,3232 Cochrane Rd NW,T2M4J3,Calgary,AB,(403) 777-6120,,banfftrail@cbe.ab.ca,Elementary,N,N,Y,N,N,{B08AA4F1-5680-4198-ABC8-18FC92E11C3B},POINT (-114.1167588 51.0816395)
The Palliser School Division,Trinity Christian School,"#100, 295 Midpark Way S.E.",T2X2A8,Calgary,AB,(403) 254-6682,,,Elementary/Junior High,N,N,Y,Y,N,{E04789C0-BE6F-4D22-B9D7-459AB77DEA9D},POINT (-114.0622404 50.9093282)
Bearspaw Christian School Society,BCS@Home,15001 - 69 Street NW,T3R1C5,Calgary,AB,(403) 295-2566,,info@bearspawschool.com,Elementary/Junior High/Senior High,N,N,Y,Y,Y,{A3D52F9B-EBD7-4F69-9B5B-BA3678B9BE21},POINT (-114.1893458 51.186944)
The Calgary School Division,Richmond School,2701 - 22 St SW,T2T5G5,Calgary,AB,(403) 777-8380,,richmond@cbe.ab.ca,Elementary,N,N,Y,N,N,{40600F0A-FF67-4A81-8576-31A9D0ED288C},POINT (-114.1150386 51.0301327)
The Calgary Roman Catholic Separate School Division,Notre Dame High School,11900 Country Village Link NE,T3K6E4,Calgary,AB,(403) 500-2109,,notredame@cssd.ab.ca,Senior High,N,N,N,N,Y,{48029833-C769-44B1-98E0-1CACAB2EACCA},POINT (-114.0658203 51.1576509)
The Calgary School Division,Rosedale School,905 13 Ave NW,T2M0G3,Calgary,AB,(403) 777-7530,,rosedale@cbe.ab.ca,Elementary/Junior High,N,N,Y,Y,N,{6562DDCF-AF5C-4C1E-9433-1CC454633EAA},POINT (-114.0814991 51.0635971)
The Calgary Roman Catholic Separate School Division,St. Mary's High School,111 - 18 Avenue S.W.,T2S0B8,Calgary,AB,(403) 500-2024,,stmarys@cssd.ab.ca,Senior High,N,N,N,N,Y,{507CB139-EE6D-40EF-A9AD-EE20B6BAACE9},POINT (-114.0640191 51.0366146)
The Calgary School Division,Simon Fraser School,5215  33 St NW,T2L1V3,Calgary,AB,(403) 777-7290,,simonfraser@cbe.ab.ca,Elementary/Junior High,N,N,Y,Y,N,{6AD9716D-3A50-48FA-B8E3-96017F59EC53},POINT (-114.1365505 51.1003194)
The Calgary Roman Catholic Separate School Division,St. Marguerite School,1100 New Brighton Drive SE,T2Z0W1,Calgary,AB,(403) 500-2127,,stmarguerite@cssd.ab.ca,Elementary,N,N,Y,N,N,{34C75764-A11A-4B8F-A014-F90CCA4CBBDD},POINT (-113.9372308 50.9211549)
Clear Water Academy Foundation,Clear Water Academy,3910 Quesnay Wood Drive SW,T3E8G1,Calgary,AB,(403) 217-8448,,btomiak@clearwateracademy.com,Elementary/Junior High/Senior High,N,N,Y,Y,Y,{02DDA5BA-8A8B-4E57-9AFF-CAC2AD6719F0},POINT (-114.1230926 51.0188767)
Aurora Learning Foundation (Calgary),Aurora Learning Calgary,#137 5305 McCall Way NE,T2E7N7,Calgary,AB,(403) 277-9535,,evan.rogers@na.oneschoolglobal.com,Elementary/Junior High/Senior High,N,N,Y,Y,Y,{BB9C01B3-0311-46BA-8DB5-A047CF699F60},POINT (-114.0030345 51.1013393)
The Calgary School Division,Balmoral School,220 16 Ave NW,T2M0H4,Calgary,AB,(403) 777-7330,,balmoral@cbe.ab.ca,Elementary/Junior High,N,N,Y,Y,N,{93360F9B-2CCD-4DC3-A814-6E6C2F39B89A},POINT (-114.0664802 51.0678818)
The Calgary School Division,Auburn Bay School,7 Auburn Bay Ave SE,T3M0K6,Calgary,AB,(403) 817-3540,,auburnbay@cbe.ab.ca,Elementary,N,N,Y,N,N,{27A01794-ADD4-435A-8021-E23D26D42DF9},POINT (-113.962328 50.896755)
STEM Innovation Academy Society,STEM Innovation Academy Middle School,1204 96 Ave SW,T2V0Y1,Calgary,AB,(403) 259-4211,,info@stemia.ca,Junior High,N,N,N,Y,N,{D9DB6EF7-C626-4834-8061-3D5ED50E4C70},POINT (-114.0884791 50.96887)
The Calgary School Division,Bishop Pinkham School,3304  63 Ave SW,T3E5K1,Calgary,AB,(403) 777-7840,,bishoppinkham@cbe.ab.ca,Junior High,N,N,N,Y,N,{2DC72A63-1F20-4424-9FF5-1112D0D5DD70},POINT (-114.1306992 50.997263)
The Calgary School Division,Saddle Ridge School,368 Saddlecrest Blvd NE,T3J5L6,Calgary,AB,(403) 777-6249,,SaddleRidge@cbe.ab.ca,Elementary,N,N,Y,N,N,{D0A0681C-FBF7-4814-BD7A-93AB693685CF},POINT (-113.9368796 51.1368826)
The Calgary School Division,Evergreen School,367 Everstone Dr SW,T2Y0L3,Calgary,AB,,,,Elementary,N,N,Y,N,N,{9AB92180-3CFD-40F8-B900-4B6D1FFA13D3},POINT (-114.1065198 50.9169239)
The Calgary School Division,Midsun School,660 Sunmills Dr SE,T2X3R5,Calgary,AB,(403) 777-6430,,midsun@cbe.ab.ca,Elementary/Junior High,N,N,Y,Y,N,{CF9331F7-9B62-4F6D-A758-C5F343F04691},POINT (-114.0309154 50.9018495)
School of East Indian Languages and Performing Arts of Calgary,School of East Indian Languages and Performing Arts,376 Silverado Boulevard SW,T2X0N9,Calgary,AB,(403) 280-5110,,office@silpa.ca,Unknown,N,N,N,N,N,{ECA56612-C12A-4CC1-A169-5B251041A3D0},POINT (-114.0875454 50.8837415)
The Calgary Roman Catholic Separate School Division,Guardian Angel School,20 Aspen Hills Dr. SW,T3H0G5,Calgary,AB,(403) 500-2111,,guardianangel@cssd.ab.ca,Elementary,N,N,Y,N,N,{9569DF86-A639-430B-92E7-758909ABF7D6},POINT (-114.2164654 51.0406287)
Calgary French & International School Society,Calgary French & International School,700 - 77 Street S.W.,T3H5R1,Calgary,AB,(403) 240-1500,,principal@cfis.com,Elementary/Junior High/Senior High,N,N,Y,Y,Y,{908708F6-2ECD-41B3-A81B-C778F5D1C330},POINT (-114.1978322 51.0678949)
The Calgary Roman Catholic Separate School Division,St. Cyril School,2990 Cedarbrae Drive S.W.,T2W2N9,Calgary,AB,(403) 500-2070,,stcyril@cssd.ab.ca,Elementary/Junior High,N,N,Y,Y,N,{59D8A3B9-2E74-41B6-BCAD-8B74CBF535B7},POINT (-114.1285219 50.9554935)
Columbia College Calgary,Columbia College,802 Manning Road N.E.,T2E7N8,Calgary,AB,(403) 235-9300,,registrar@columbia.ca,Senior High,N,N,N,N,Y,{66E20145-61C2-43AD-A8F9-6B7AE0E061E7},POINT (-114.018022 51.0570018)
Bearspaw Christian School Society,Bearspaw Christian School & College,15001 - 69 Street NW,T3R1C5,Calgary,AB,(403) 295-2566,,info@bearspawschool.com,Elementary/Junior High/Senior High,N,N,Y,Y,Y,{628F9F2B-37B8-4A3C-93E9-2CCFC2F97BC9},POINT (-114.1893458 51.186944)
The Calgary Roman Catholic Separate School Division,Our Lady of the Evergreens Catholic School,322 Everridge Dr. S.W.,T2Y0L5,Calgary,AB,(403) 500-2120,,ourladyevergreens@cssd.ab.ca,Elementary,N,N,Y,N,N,{F400835D-D46A-40D1-943B-B5B66B3BE6A2},POINT (-114.1221942 50.9143738)
Muslim Association of Canada,MAC Islamic School - Calgary Chapter,64 12 street NE,T3G1B5,Calgary,AB,(403) 454-7879,,office@macislamicschool.ca,Elementary/Junior High,N,N,Y,Y,N,{4B8AE7DB-E338-4B59-A936-60445FF7BBE3},POINT (-114.1799322 51.1148369)
The Calgary School Division,Eric Harvie School,357 Tuscany Dr NW,T3L3C9,Calgary,AB,(403) 817-3532,,ericharvie@cbe.ab.ca,Elementary,N,N,Y,N,N,{A65412AA-D58E-4C3E-8DA1-D766F90095E4},POINT (-114.2511111 51.1280419)
The Calgary School Division,Douglas Harkness School,6203  24 Ave NE,T1Y2C5,Calgary,AB,(403) 777-6720,,douglasharkness@cbe.ab.ca,Elementary,N,N,Y,N,N,{DFBAA360-207C-4B34-9126-95B0D543666C},POINT (-113.9460446 51.0738435)
Calgary Arts Academy Society,Calgary Arts Academy,640 14th Avenue S.E.,T2G1E8,Calgary,AB,(403) 532-3020,,cjordan@caaschool.com,Elementary/Junior High/Senior High,N,N,Y,Y,Y,{3E3498B7-6AE6-4619-95C3-A1EAE135A14C},POINT (-114.0492422 51.039402)
GCA Educational Society,Glenmore Christian Academy Junior High,16520-24 Street SW,T2Y4W2,Calgary,AB,(403) 254-9051,,admin@gcaschool.com,Elementary/Junior High,N,N,Y,Y,N,{37860CA2-F7A3-4F89-9A83-6AA75762BDC1},POINT (-114.115239 50.9039788)
The Calgary Roman Catholic Separate School Division,Ecole St. Pius X School,2312 - 18 Street N.W.,T2M3T5,Calgary,AB,(403) 500-2015,,stpius@cssd.ab.ca,Elementary,N,N,Y,N,N,{1C0707CD-FB78-462C-8669-E477367E7339},POINT (-114.1034063 51.0729725)
The Calgary School Division,Coventry Hills School,12350 Coventry Hills Way NE,T3K5S9,Calgary,AB,(403) 777-6025,,coventryhills@cbe.ab.ca,Elementary,N,N,Y,N,N,{E4FBF1E4-ABEA-4DF1-98C4-46D696E298E6},POINT (-114.0514137 51.1651804)
The Calgary School Division,Samuel W. Shaw School,115 Shannon Dr SW,T2Y0K6,Calgary,AB,(403) 777-6163,,,Elementary/Junior High,N,N,Y,Y,N,{A3B7DEA6-FBB5-483D-9284-D17FAB46E108},POINT (-114.0873756 50.9081321)
The Calgary Roman Catholic Separate School Division,St. Augustine Elementary Junior High School,7112 - 7 Street S.W.,T2V1E9,Calgary,AB,(403) 500-2022,,staugustine@cssd.ab.ca,Elementary/Junior High,N,N,Y,Y,N,{5E42FA37-0AE1-4273-BCC0-ABCE971C2052},POINT (-114.0807771 50.9911137)
The Calgary School Division,Mahogany School,165 Mahogany Blvd. SE,,Calgary,AB,(403) 817-3448,,Mahogany@cbe.ab.ca,Elementary,N,N,Y,N,N,{B3C65FB2-6BCE-47DA-AE41-610FE39F6A45},POINT (-113.926494 50.9025509)
The Calgary School Division,Sherwood School,2011  66 Ave SE,T2C1J4,Calgary,AB,(403) 777-7590,,sherwood@cbe.ab.ca,Elementary/Junior High,N,N,Y,Y,N,{DBE97797-AD1C-46C3-A102-E5874C681891},POINT (-114.0114784 50.9936967)
The Calgary School Division,Elbow Park School,721  38 Ave SW,T2T2H8,Calgary,AB,(403) 817-3408,,elbowpark@cbe.ab.ca,Elementary,N,N,Y,N,N,{52EC2FD5-EA74-432E-B339-AFBA893810CE},POINT (-114.082197 51.0195775)
The Calgary Roman Catholic Separate School Division,St. Bernadette School,55 Lynndale Crescent S.E.,T2C0T8,Calgary,AB,(403) 500-2020,,stbernadette@cssd.ab.ca,Elementary,N,N,Y,N,N,{C188B6E5-3785-4E06-8805-BC4EC6458CFD},POINT (-114.0091978 50.9903909)
The Calgary School Division,Arbour Lake Middle School,27 Arbour Crest Dr NW,T3G4H3,Calgary,AB,(403) 777-7310,,ArbourLake@cbe.ab.ca,Elementary/Junior High,N,N,Y,Y,N,{29E6BA29-1883-495D-88DE-10D6C7B284CD},POINT (-114.2091772 51.134651)
The Calgary School Division,Battalion Park School,369 Sienna Park Dr SW,T3H4S2,Calgary,AB,(403) 777-7187,,battalionpark@cbe.ab.ca,Elementary,N,N,Y,N,N,{B9D0A74F-9488-4C98-89FF-2058EEBCDC95},POINT (-114.181901 51.0235669)
The Calgary School Division,Western Canada High School,641  17 Ave SW,T2S0B5,Calgary,AB,(403) 228-5363,,westerncanada@cbe.ab.ca,Senior High,N,N,N,N,Y,{CF482468-DEB3-4F31-8F16-D9275B66980E},POINT (-114.0775476 51.0369948)
The Calgary School Division,W. O. Mitchell School,511 Silvergrove Dr NW,T3B4R9,Calgary,AB,(403) 777-6100,,womitchell@cbe.ab.ca,Elementary,N,N,Y,N,N,{3613CB27-2D5E-411F-A2CD-A91EE5A32A22},POINT (-114.1942875 51.1136908)
The Calgary Roman Catholic Separate School Division,St. Sebastian Elementary School,65 Chaparal Drive SE,T2X0E6,Calgary,AB,(403) 500-2116,,stsebastian@cssd.ab.ca,Elementary,N,N,Y,N,N,{A16606FB-2B3C-4333-9214-534E86AA8D69},POINT (-114.029127 50.8848431)
The Palliser School Division,Heritage Christian Academy,2003 McKnight Boulevard N.E.,T2E6L2,Calgary,AB,(403) 219-3201,,heritage_info@pallisersd.ab.ca,Elementary/Junior High/Senior High,N,N,Y,Y,Y,{6329D1B0-2F99-47FF-81EF-973BA3F4BBD2},POINT (-114.0101364 51.0921352)
The Calgary Roman Catholic Separate School Division,St. Rupert School,111 Rundlehill Drive N.E.,T1Y2W9,Calgary,AB,(403) 500-2044,,strupert@cssd.ab.ca,Elementary,N,N,Y,N,N,{EF83C5B0-534F-4912-80C1-55721C3DC967},POINT (-113.9705266 51.0769132)
The Calgary School Division,Ethel M. Johnson School,255 Sackville Dr SW,T2W0W7,Calgary,AB,(403) 777-8500,,ethelmjohnson@cbe.ab.ca,Elementary,N,N,Y,N,N,{753ACF25-FB2E-4AEF-AB18-D67BA10728D0},POINT (-114.0890389 50.9554734)
The Calgary Roman Catholic Separate School Division,Bishop McNally High School,5700 Falconridge Boulevard N.E,T3J3N4,Calgary,AB,(403) 500-2091,,bishopmcnally@cssd.ab.ca,Senior High,N,N,N,N,Y,{84139757-C9B7-4287-9382-9356A190DB38},POINT (-113.9536063 51.1032212)
The Palliser School Division,Master's College,4414 Crowchild Trail SW,T2T5J4,Calgary,AB,(403) 242-7034,,,Junior High/Senior High,N,N,N,Y,Y,{CA3B84EF-C49A-4729-A9A7-D0E477B5CF71},POINT (-114.1165458 51.0153024)
The Gilbertine Institute of Catholic Studies,The Gilbertine Academy,1423 8 Ave SE,T2G0N1,Calgary,AB,(866) 361-3650,,admin@gilbertineinstitute.com,Elementary/Junior High/Senior High,N,N,Y,Y,Y,{BE12E79C-6231-45CD-B9F8-F57BB5F0364F},POINT (-114.0292505 51.0400236)
Arise Calgary Church,Arise Christian Academy,"155 Falconridge Crescent NE 
Calgary, AB T3J 1Z9",T3J1Z9,Calgary,AB,(825) 712-9554,,arisechristianacademy33@gmail.com,Elementary/Junior High/Senior High,N,N,Y,Y,Y,{43E6A0BB-83E3-4D87-BAB4-364EA7B3FAFE},POINT (-113.9532286 51.0966232)
The Calgary School Division,Valley Creek School,10951 Hidden Valley Dr NW,T3A6J2,Calgary,AB,(403) 777-7995,,valleycreek@cbe.ab.ca,Elementary/Junior High,N,N,Y,Y,N,{1D9231B4-0CDB-46FE-8B74-5CB4C8604DE6},POINT (-114.1166729 51.1502338)
The Calgary School Division,Earl Grey School,845 Hillcrest Ave SW,T2T0Z1,Calgary,AB,(403) 777-8570,,earlgrey@cbe.ab.ca,Elementary,N,N,Y,N,N,{EDB92139-81DF-45E8-A159-CC302D7D7E4C},POINT (-114.0826538 51.0308745)
Almadina School Society,"Almadina Language Charter Academy, Ogden Campus",1919 - 76th Avenue SE,T2C0G8,Calgary,AB,(403) 543-5070,,lelchamaa@esl-almadina.com,Elementary/Junior High,N,N,Y,Y,N,{C243D7D5-7A8D-4DAA-B9D8-596F4EF9D0B5},POINT (-114.011988 50.9844553)
The Calgary Roman Catholic Separate School Division,St. Jude School,730 Woodbine Boulevard S.W.,T2W4W4,Calgary,AB,(403) 500-2084,,stjude@cssd.ab.ca,Elementary,N,N,Y,N,N,{7780D4C6-44B2-429B-8D86-9AEA776DC7EB},POINT (-114.1334374 50.9429522)
The Calgary School Division,Colonel J. Fred Scott School,171 Whitehorn Rd NE,T1Y3C4,Calgary,AB,(403) 777-6710,,coloneljfredscott@cbe.ab.ca,Elementary,N,N,Y,N,N,{0D2A80D4-31D2-451B-A1BA-41B058161BAF},POINT (-113.9681644 51.0877669)
The Calgary School Division,Mount Royal School,2234  14 St SW,T2T3T3,Calgary,AB,(403) 777-7980,,mountroyal@cbe.ab.ca,Junior High,N,N,N,Y,N,{93E7C588-D817-4F84-AE0A-FA9A2B49B4BE},POINT (-114.0939102 51.0347223)
The Calgary School Division,Northern Lights School,711 Coventry Dr NE,,Calgary,AB,(403) 817-3444,,northernlights@cbe.ab.ca,Elementary,N,N,Y,N,N,{0F25CA09-4D8D-4895-8F4A-0DE8678C0D7D},POINT (-114.0469265 51.1576163)
The Calgary School Division,William Roper Hull School,2266 Woodpark Ave SW,T2W2Z8,Calgary,AB,(403) 251-8022,,williamroperhull@cbe.ab.ca,Elementary/Junior High/Senior High,N,N,Y,Y,Y,{862AADD2-E43E-49A3-AB63-24057FA05E52},POINT (-114.1138325 50.9483626)
The Calgary School Division,Glenmeadows School,4931 Grove Hill Rd SW,T3E4G4,Calgary,AB,(403) 777-5235,,glenmeadows@cbe.ab.ca,Elementary,N,N,Y,N,N,{67072629-FEB0-4DF8-956A-C667FA28600B},POINT (-114.1589291 51.0348618)
The Calgary Roman Catholic Separate School Division,St. Boniface Elementary School,927 Lake Sylvan Drive S.E.,T2J2P8,Calgary,AB,(403) 500-2060,,stboniface@cssd.ab.ca,Elementary,N,N,Y,N,N,{8915089D-9F82-47F6-A2C4-36598146187D},POINT (-114.0423413 50.9430637)
The Calgary Roman Catholic Separate School Division,St. Thomas More School,6110 Temple Drive N.E.,T1Y5V4,Calgary,AB,(403) 500-2081,,stthomasmore@cssd.ab.ca,Elementary,N,N,Y,N,N,{9A0F8663-6308-4D58-9D77-3649BFF4FCEB},POINT (-113.9455354 51.085415)
The Calgary Roman Catholic Separate School Division,Bishop Kidd School,1420 - 28 Street S.E.,T2A0Y8,Calgary,AB,(403) 500-2052,,bishop.kidd@cssd.ab.ca,Junior High,N,N,N,Y,N,{5B779E9D-94BC-4187-B902-B869802FE5DB},POINT (-113.9921286 51.0405768)
The Calgary School Division,John Ware School,10020  19 St SW,T2V1R2,Calgary,AB,(403) 777-7930,,johnware@cbe.ab.ca,Junior High,N,N,N,Y,N,{5915AEBB-A15B-48B3-96A0-A502F9E09E58},POINT (-114.1053048 50.9636548)
The Calgary School Division,Beddington Heights School,95 Bermuda Rd NW,T3K2J6,Calgary,AB,(403) 777-6610,,beddingtonheights@cbe.ab.ca,Elementary,N,N,Y,N,N,{136B9F2C-2D85-4FC9-9FFE-CEE0EFBC4A9B},POINT (-114.0793929 51.1317456)
The Calgary School Division,Varsity Acres School,4255 40 St NW,T3A0H7,Calgary,AB,(403) 777-6090,,varsityacres@cbe.ab.ca,Elementary,N,N,Y,N,N,{E5374B63-FF96-425F-A944-7E459B27A5A1},POINT (-114.1482182 51.0910144)
The Calgary School Division,William D. Pratt School,9850 Royal Oak Dr NW,T3G0A4,Calgary,AB,(403) 817-3520,,williamdpratt@cbe.ab.ca,Elementary/Junior High,N,N,Y,Y,N,{34255253-956B-44FF-AFEC-B3F802FC47D9},POINT (-114.2240926 51.1493607)
Al-Zahra Islamic Research Foundation,Al-Qaim International School,"510 77 Ave SE, Calgary, AB T2H",T2H1C3,Calgary,AB,(403) 851-7557,,info@alqaimschool.ca,Elementary/Junior High,N,N,Y,Y,N,{C7E32DA8-916C-421A-9872-7F0EE41C27F6},POINT (-114.0514595 50.9851221)
North Point School for Boys,North Point School,2445 - 23 Ave SW,T2T0W3,Calgary,AB,(403) 744-5214,,,Elementary/Junior High/Senior High,N,N,Y,Y,Y,{7809E2E3-7988-4681-82E9-4C7ADD331754},POINT (-114.1174839 51.0325564)
"Maria Montessori Education Centre of Calgary, Ltd.",Maria Montessori School,"Chief Crowfoot School Building 
2634 12 Ave NW",T2N1K6,Calgary,AB,(403) 668-8538,,info@mmec.ca,Elementary/Junior High,N,N,Y,Y,N,{4C58FE07-91E9-4C39-BB51-4C28E27EAA8D},POINT (-114.1235826 51.0627098)
The Calgary School Division,Dr. Freda Miller School,211 Everbrook Dr SW,T2Y0E8,Calgary,AB,(403) 817-3428,,drfredamiller@cbe.ab.ca,Elementary,N,N,Y,N,N,{4819274C-D2D0-4329-9644-8F8C008AAEA8},POINT (-114.1160186 50.9208504)
The Calgary School Division,Cedarbrae School,10631 Oakfield Dr SW,T2W2T3,Calgary,AB,(403) 777-8610,,cedarbrae@cbe.ab.ca,Elementary,N,N,Y,N,N,{8623D6AF-3E3B-4150-983A-ECD9BA7ECBD8},POINT (-114.1331845 50.9583988)
The Calgary School Division,Crescent Heights High School,1019 1 St NW,T2M2S2,Calgary,AB,(403) 276-5521,,crescentheights@cbe.ab.ca,Senior High,N,N,N,N,Y,{CEF67E89-BB78-4E73-849A-02099CCF7932},POINT (-114.0660914 51.0614898)
The Calgary School Division,Queen Elizabeth High School,512  18 St NW,T2N2G5,Calgary,AB,(403) 777-6380,,queenelizabethjrsr@cbe.ab.ca,Junior High/Senior High,N,N,N,Y,Y,{2F63175A-AAA4-45FD-A2BE-F24751026ED7},POINT (-114.1019163 51.0562024)
The Calgary School Division,Cappy Smart School,5808 Madigan Dr NE,T2A4P5,Calgary,AB,(403) 777-8110,,cappysmart@cbe.ab.ca,Elementary,N,N,Y,N,N,{2395E183-681E-4979-8240-2F9F9C3983DC},POINT (-113.9450677 51.0636931)
The Calgary School Division,Erin Woods School,25 Erin Park Dr SE,T2B2Z9,Calgary,AB,(403) 777-8140,,erinwoods@cbe.ab.ca,Elementary,N,N,Y,N,N,{171D301B-421D-4FE4-88B3-96B955C7D0E4},POINT (-113.9657774 51.0226997)
Renfrew Educational Services Society,Renfrew Educational Services-Janice McTighe Centre,2050 - 21 Street N.E.,T2E6S5,Calgary,AB,(403) 291-5038,,renfrew@renfreweducation.org,Elementary/Junior High,N,N,Y,Y,N,{E412DFA4-F22C-4678-BC80-7153C19856B0},POINT (-114.0082917 51.069617)
The Calgary School Division,Buchanan School,3717 Centre St NW,T2E2Y2,Calgary,AB,(403) 777-6260,,buchanan@cbe.ab.ca,Elementary,N,N,Y,N,N,{E6B84ADD-ACD8-4788-88E0-AC45D6277A82},POINT (-114.0631478 51.0856297)
The Calgary Roman Catholic Separate School Division,St. Cecilia (Bilingual) Elementary School,610 Agate Crescent S.E.,T2J0Z3,Calgary,AB,(403) 500-2040,,stcecilia@cssd.ab.ca,Elementary,N,N,Y,N,N,{95F749F4-7508-4C90-81D9-79497EAB8522},POINT (-114.0504111 50.9652961)
The Calgary School Division,O. S. Geiger School,100 Castlebrook Dr NE,T3J2J4,Calgary,AB,(403) 777-6950,,osgeiger@cbe.ab.ca,Elementary,N,N,Y,N,N,{D1DEAA51-1698-43A9-A800-436CCB8DBAFF},POINT (-113.9615405 51.1048865)
The Prairie Land School Division,Al-Amal Academy,9 Royal Vista Drive NW,T3R0N2,Calgary,AB,(825) 996-5399,,al-amal.academy@plrd.ab.ca,Elementary/Junior High,N,N,Y,Y,N,{8D1B7FD2-FB4D-41C7-BC95-9A71DFAAA9CE},POINT (-114.2075428 51.1507322)
The Calgary School Division,Hawkwood School,650 Hawkwood Blvd NW,T3G2V7,Calgary,AB,(403) 777-6410,,hawkwood@cbe.ab.ca,Elementary,N,N,Y,N,N,{BFA3894A-0CD7-442E-974F-D7AE76054419},POINT (-114.1787461 51.1306569)
The Calgary Roman Catholic Separate School Division,St. Henry Elementary School,7423 - 10 Street N.W.,T2K1H5,Calgary,AB,(403) 500-2059,,sthenry@cssd.ab.ca,Elementary,N,N,Y,N,N,{F0EE1DF7-1958-4374-A4BD-5B78B3A56FFE},POINT (-114.0801778 51.1175975)
The Calgary School Division,Sundance School,200 Sunmills Dr SE,T2X2N9,Calgary,AB,(403) 777-8690,,sundance@cbe.ab.ca,Elementary,N,N,Y,N,N,{59351B54-A5A6-4B25-99D0-CC639D244B13},POINT (-114.0468131 50.9006606)
The Calgary School Division,Janet Johnstone School,224 Shawnessy Dr SW,T2Y1M1,Calgary,AB,(403) 777-8670,,janetjohnstone@cbe.ab.ca,Elementary,N,N,Y,N,N,{A26C5448-02E6-4958-95BB-B3E7F78BEB58},POINT (-114.080086 50.9093693)
The Calgary School Division,James Short Memorial School,6333  5 Ave SE,T2A3V7,Calgary,AB,(403) 777-8170,,jamesshortmemorial@cbe.ab.ca,Elementary,N,N,Y,N,N,{9051BE7D-004F-4C03-BA7E-8711D692DAD9},POINT (-113.9427983 51.0478605)
The Calgary School Division,Woodlands School,88 Woodgreen Dr SW,T2W4W9,Calgary,AB,(403) 777-8640,,woodlands@cbe.ab.ca,Elementary,N,N,Y,N,N,{0F867C5A-2C73-4B15-AAB9-796BFE946200},POINT (-114.1069696 50.9389352)
Foundations for the Future Charter Academy Charter School Society,North Middle School Campus,211 McKnight Blvd. NE,T2E5S7,Calgary,AB,,,kimberly.johnson@ffca-calgary.com,Elementary/Junior High,N,N,Y,Y,N,{853C8C19-B88C-45DF-9D5C-BF8C3FD44AD3},POINT (-114.060601 51.0954531)
The Calgary School Division,West Dalhousie School,6502  58 St NW,T3A2C8,Calgary,AB,(403) 777-6110,,westdalhousie@cbe.ab.ca,Elementary,N,N,Y,N,N,{4903E885-42CC-434C-A0F3-5548BE70AA14},POINT (-114.1695389 51.1111682)
The Calgary Roman Catholic Separate School Division,St. James Elementary Junior High School,2227 - 58 Avenue S.W.,T3E1N6,Calgary,AB,(403) 500-2035,,stjames@cssd.ab.ca,Elementary/Junior High,N,N,Y,Y,N,{CC62EAE1-671B-42D5-9B4A-33FF62738CEA},POINT (-114.113664 51.0011413)
The Calgary Roman Catholic Separate School Division,St. Kateri Tekakwitha School,1005 Abbotsford Drive N.E.,T2A7N5,Calgary,AB,(403) 500-2090,,stkateri@cssd.ab.ca,Elementary,N,N,Y,N,N,{416EB0B4-E9F9-427A-BA0F-0273151114D8},POINT (-113.9276608 51.0618538)
The Calgary School Division,Terry Fox School,139 Falshire Dr NE,T3J1P7,Calgary,AB,(403) 777-8800,,terryfox@cbe.ab.ca,Junior High,N,N,N,Y,N,{2FE46DF9-5B1A-4FE2-AD51-980D9F3DE7A0},POINT (-113.945104 51.1046569)
The Southern Francophone Education Region,École Terre des Jeunes,3720 - 42 Street NW,T3A0C6,Calgary,AB,(403) 247-2458,,,Elementary,N,N,Y,N,N,{D109A06F-FF33-43D7-A695-5A4887892075},POINT (-114.1499727 51.0853094)
The Calgary School Division,Eugene Coste School,10 Hillgrove Cres SW,T2V3K7,Calgary,AB,(403) 777-8511,,eugenecoste@cbe.ab.ca,Elementary,N,N,Y,N,N,{F2C540A1-FAF6-4913-A310-AC967CE73C2D},POINT (-114.0869778 50.9678896)
Lady Fatima Academy,Lady Fatima Academy,Suite 310 1001 1 St SE,T2G5G3,Calgary,AB,(587) 437-0083,,info@ladyfatimaacademy.ca,Elementary,N,N,Y,N,N,{2AD194DD-EB72-4E81-A6C6-5007FADD96CD},POINT (-114.0612408 51.043006)
The Calgary School Division,John G. Diefenbaker High School,6620  4 St NW,T2K1C2,Calgary,AB,(403) 274-2240,,johngdiefenbaker@cbe.ab.ca,Senior High,N,N,N,N,Y,{590EF6FA-1780-4492-890E-7360AD2E3A6D},POINT (-114.0701312 51.1127974)
The Calgary Roman Catholic Separate School Division,St. Michael School,4511 - 8 Avenue S.W.,T3C0G9,Calgary,AB,(403) 500-2021,,stmichael@cssd.ab.ca,Elementary/Junior High,N,N,Y,Y,N,{0EA3AAF4-A906-4C1F-BBC8-240AE4E9ED08},POINT (-114.1515775 51.0447849)
The Calgary School Division,A. E. Cross School,3445  37 St SW,T3E3C2,Calgary,AB,(403) 777-7410,,aecross@cbe.ab.ca,Junior High,N,N,N,Y,N,{2B5E6ED8-59EC-4932-9855-E3AA83C677E6},POINT (-114.1420958 51.0232443)
The Calgary Roman Catholic Separate School Division,St. Vincent De Paul Elementary Junior High School,4525 - 49 Street N.W.,T3A0K4,Calgary,AB,(403) 500-2051,,stvincent@cssd.ab.ca,Elementary/Junior High,N,N,Y,Y,N,{B8122A61-42B9-4CC2-A44B-F0A409DE7523},POINT (-114.1597997 51.0931446)
The Calgary School Division,Monterey Park School,7400 California Blvd NE,T1Y6R2,Calgary,AB,(403) 777-7233,,montereypark@cbe.ab.ca,Elementary,N,N,Y,N,N,{BA904022-9A91-439C-B29A-8A53064BF324},POINT (-113.9304829 51.0774247)
The Calgary School Division,Ernest Manning High School,20 Springborough Blvd SW,T3H0N7,Calgary,AB,(403) 249-3131,,ernestmanning@cbe.ab.ca,Senior High,N,N,N,N,Y,{B05E5EA0-E825-4726-BCDC-B4DEE590CEC6},POINT (-114.1892353 51.035957)
The Canadian Montessori School Ltd.,Canadian Montessori School North,1112 - 70 Avenue S.W.,T2V0P6,Calgary,AB,(403) 252-3281,,admin@calgarymontessorischool.com,Unknown,N,N,N,N,N,{CF0CCC63-0931-4A35-A5C4-D4A933C99FF3},POINT (-114.0882622 50.9907447)
The Calgary School Division,Olympic Heights School,875 Strathcona Dr SW,T3H2Z7,Calgary,AB,(403) 777-8370,,olympicheights@cbe.ab.ca,Elementary,N,N,Y,N,N,{1E6E01F9-8E05-4CBB-811B-7B73E3E00BEB},POINT (-114.1807765 51.0459676)
The Calgary Roman Catholic Separate School Division,St. John Henry Newman School,16201 McKenzie Lake  Boulevard S.E.,T2Z2G7,Calgary,AB,(403) 500-2092,,stjohnhenrynewman@cssd.ab.ca,Elementary/Junior High,N,N,Y,Y,N,{769EDA24-B445-40C9-BE5A-FA23D037753A},POINT (-113.9888584 50.9073393)
The Calgary School Division,Marlborough School,4711 Maryvale Dr NE,T2A3A1,Calgary,AB,(403) 777-8190,,marlborough@cbe.ab.ca,Elementary,N,N,Y,N,N,{54F6C432-2500-4DB0-80D5-A5CA2227DD54},POINT (-113.9654996 51.0560836)
The Calgary Roman Catholic Separate School Division,Our Lady of the Rockies High School,111 Haddon Road S.W.,T2V2Y2,Calgary,AB,(403) 500-2047,,ourladyoftherockies@cssd.ab.ca,Senior High,N,N,N,N,Y,{80019751-285F-4800-80C0-03717D2C9AAD},POINT (-114.078741 50.9754378)
Foundations for the Future Charter Academy Charter School Society,FFCA South High School Campus,315 86th Avenue SE,T2H1Z2,Calgary,AB,(587) 794-4250,,wanda.amundson@ffca-calgary.com,Junior High/Senior High,N,N,N,Y,Y,{26AC5C78-9F0C-4AB3-96CE-8DCF47F8E835},POINT (-114.0650625 50.9753211)
The Calgary School Division,Discovering Choices,#206 315 10 Ave SE,T2G0W2,Calgary,AB,(403) 268-3265,,discoveringchoices@cbe.ab.ca,Senior High,N,N,N,N,Y,{B0002976-47CE-4349-87ED-F5FB13D39F35},POINT (-114.0566933 51.0428705)
The Calgary School Division,Sibylla Kiddle School,126 Cranford Dr SE,,Calgary,AB,(403) 817-3432,,SibyllaKiddle@cbe.ab.ca,Elementary,N,N,Y,N,N,{B91119EC-290A-45CD-99F4-B83C74D7A5D4},POINT (-113.9708023 50.8778625)
The Calgary School Division,Prairie Sky School,201 Skyview Ranch Road NE,T3N2E7,Calgary,AB,(403) 817-3452,,prairiesky@cbe.ab.ca,Elementary/Junior High,N,N,Y,Y,N,{5C530C8F-4E02-42FA-ACCC-6777524FB474},POINT (-113.9568896 51.1621326)
The Calgary Chinese Public School Society,Calgary Chinese Private School,126 2nd Avenue S.W,T2P0B9,Calgary,AB,(403) 264-2233,,ccps@shaw.ca,Senior High,N,N,N,N,Y,{2E357C1A-90FE-456A-AA09-0C8F8085A21E},POINT (-114.0642879 51.0516146)
The Calgary School Division,Capitol Hill School,2210  18 St NW,T2M3T4,Calgary,AB,(403) 777-6160,,capitolhill@cbe.ab.ca,Elementary,N,N,Y,N,N,{53CCB167-1085-40BD-BCB4-5EF43FBD2B5F},POINT (-114.1039175 51.0720766)
The Southern Francophone Education Region,École Sainte-Marguerite-Bourgeoys,4700 Richard Road S.W.,T3E6L1,Calgary,AB,(403) 240-2007,,,Elementary/Junior High/Senior High,N,N,Y,Y,Y,{87F7BF36-C69F-425E-95DC-DC96C2BBFC11},POINT (-114.121583 51.0111375)
The Calgary School Division,Dalhousie School,4440 Dallyn St NW,T3A1K3,Calgary,AB,(403) 777-6030,,dalhousie@cbe.ab.ca,Elementary,N,N,Y,N,N,{BB98F00D-EBE9-4CD4-AFFF-6C2BE292C23C},POINT (-114.1513785 51.1065269)
The Calgary School Division,Dr. J. K. Mulloy School,7440 10 St NW,T2K1H6,Calgary,AB,(403) 777-6640,,,Elementary,N,N,Y,N,N,{CABAD8B0-D977-4E1D-9366-1D5189738FC5},POINT (-114.079969 51.1192251)
The Calgary Roman Catholic Separate School Division,St. Wilfrid Elementary School,4225 - 44 Avenue N.E.,T1Y4Y1,Calgary,AB,(403) 500-2077,,stwilfrid@cssd.ab.ca,Elementary,N,N,Y,N,N,{6BE7319C-6148-44CB-A6B1-80CB7813A826},POINT (-113.9690047 51.0919216)
The Calgary School Division,Belfast School,1229  17A St NE,T2E4V4,Calgary,AB,(403) 777-6250,,belfast@cbe.ab.ca,Elementary,N,N,Y,N,N,{3C807AE4-5B48-4083-A392-C29012FAF8DA},POINT (-114.0183083 51.063375)
The Calgary School Division,H. D. Cartwright School,5500 Dalhart Rd NW,T3A1V6,Calgary,AB,(403) 777-7420,,hdcartwright@cbe.ab.ca,Junior High,N,N,N,Y,N,{7FC9DF24-3979-4D41-9CBC-039C81F33B27},POINT (-114.1613274 51.1126485)
The Calgary Roman Catholic Separate School Division,St. Clare,"12455 Coventry Hills Way, N.E.",T3K5Z4,Calgary,AB,(403) 500-2102,,stclare@cssd.ab.ca,Elementary,N,N,Y,N,N,{E0A6827F-65B2-4115-A007-2A9EE2B1FCD1},POINT (-114.0453956 51.1647425)
The Calgary School Division,University School,3035 Utah Dr NW,T2N3Z9,Calgary,AB,(403) 777-6240,,university@cbe.ab.ca,Elementary,N,N,Y,N,N,{C43B0CA0-21C8-4CC6-854F-628A2E09FCC5},POINT (-114.1332756 51.0698082)
The Calgary School Division,Sam Livingston School,12011 Bonaventure Dr SE,T2J3G7,Calgary,AB,(403) 777-6890,,samlivingston@cbe.ab.ca,Elementary,N,N,Y,N,N,{1BC5E036-AF35-46B3-A8D8-008B91F011B0},POINT (-114.0612703 50.9454482)
The Palliser School Division,"Calgary Islamic School, Omar Bin Al-Khattab Campus",Omar Bin Al-Khattab Campus,T2A5K4,Calgary,AB,(584) 353-8900,,,Elementary/Junior High,N,N,Y,Y,N,{C5714A68-6F8A-4BEA-B1A2-0EFF04FE0868},POINT (-113.9938098 51.050745)
Calgary International Academy Ltd,Calgary International Academy ECS,110-1248 Livingston Way NE,T3J4A3,Calgary,AB,(403) 991-7534,,info@ciacademy.ca,Unknown,N,N,N,N,N,{F224073D-674F-4756-8A61-54B88F1D7180},POINT (-113.9527894 51.1258883)
The Calgary School Division,Dr. Martha Cohen School,116 Brightondale Pk SE,T2Z0V1,Calgary,AB,(403) 817-3548,,drmarthacohen@cbe.ab.ca,Elementary/Junior High,N,N,Y,Y,N,{07674102-00FC-4864-BA5D-42E412C8F6E9},POINT (-113.9447324 50.9170989)
The Calgary School Division,Sir Wilfrid Laurier School,819  32 St SE,T2A0Y9,Calgary,AB,(403) 777-7370,,ampetroni@cbe.ab.ca,Elementary/Junior High,N,N,Y,Y,N,{DB797809-6214-43CF-B9C2-BA9E112A8997},POINT (-113.9893061 51.0457348)
The Calgary School Division,Rundle School,4120 Rundlehorn Dr NE,T1Y4W9,Calgary,AB,(403) 777-6760,,rundle@cbe.ab.ca,Elementary,N,N,Y,N,N,{26B5804A-98BA-44DD-97D3-476DC3E10FC4},POINT (-113.9737217 51.0711823)
The Calgary School Division,Branton School,2103  20 St NW,T2M3W1,Calgary,AB,(403) 777-7440,,branton@cbe.ab.ca,Elementary/Junior High,N,N,Y,Y,N,{1CB83F50-DEF7-4F8C-A263-179B19636C2E},POINT (-114.1090305 51.0712469)
The Calgary Roman Catholic Separate School Division,St. Jean Brebeuf School,5030 Northland Drive N.W.,T2L2J6,Calgary,AB,(403) 500-2046,,stjeanbrebeuf@cssd.ab.ca,Junior High,N,N,N,Y,N,{589BD16A-00C9-4E12-8294-2271E904FE26},POINT (-114.1402289 51.0978934)
Foundations for the Future Charter Academy Charter School Society,South Middle School Campus,8710 Ancourt Rd. SE,T2H1V2,Calgary,AB,(403) 259-3175,,,Elementary/Junior High,N,N,Y,Y,N,{3FEEFFF7-8EA7-41DD-BB2F-C99924B14DBC},POINT (-114.053305 50.9752902)
The Calgary Roman Catholic Separate School Division,St. Anthony,4811 6th St. SW,T2S2N5,Calgary,AB,(403) 500-2013,,stanthony@cssd.ab.ca,Elementary/Junior High/Senior High,N,N,Y,Y,Y,{9833DF80-91A0-421C-983A-7792DB9FF135},POINT (-114.0793009 51.0101091)
River Valley School Society,River Valley School,3127 Bowwood Drive N.W.,T3B2E7,Calgary,AB,(403) 246-2275,,info@rivervalleyschool.ca,Elementary,N,N,Y,N,N,{C2B711B9-5F70-4E9D-9596-FA387FA09655},POINT (-114.1743441 51.0794694)
The Calgary School Division,Woodman School,8706 Elbow Dr SW,T2V1L2,Calgary,AB,(403) 777-7490,,woodman@cbe.ab.ca,Elementary/Junior High,N,N,Y,Y,N,{D4B92EB9-3BA7-43DA-8C95-C14BA53A741A},POINT (-114.083213 50.9756583)
The Calgary Roman Catholic Separate School Division,St. Bonaventure School,1710 Acadia Drive S.E.,T2J3X8,Calgary,AB,(403) 500-2062,,stbonaventure@cssd.ab.ca,Junior High,N,N,N,Y,N,{B7F2ACC0-A01F-4BDB-85D8-56C8AF09AFF4},POINT (-114.0471812 50.9317371)
The Calgary School Division,CLS Forest Lawn Writing Centre,1304 44 St SE,T2A1M8,Calgary,AB,(403) 272-6665,,chinooklearning@cbe.ab.ca,Unknown,N,N,N,N,N,{94B5071F-7F7C-4E2B-83D2-7BEAB437B69D},POINT (-113.9689496 51.0424031)
The Calgary Roman Catholic Separate School Division,St. Elizabeth Seton,10845 Hidden Valley Drive,T3A6K3,Calgary,AB,(403) 500-2105,,stelizabethseton@cssd.ab.ca,Elementary/Junior High,N,N,Y,Y,N,{FA0F542E-E0E4-4D34-9569-C9EC88201D40},POINT (-114.1104364 51.1511018)
The Calgary School Division,Chinook Learning Services,2336 53 Ave SW,T2M0T2,Calgary,AB,(403) 777-7200,,chinooklearning@cbe.ab.ca,Senior High,N,N,N,N,Y,{69276541-51FE-4982-B8D3-2A04126FCEAE},POINT (-114.0654256 51.0685816)
The Calgary Roman Catholic Separate School Division,St. Joan of Arc Elementary/Junior High School,7970 Wentworth Drive SW,T3H0K2,Calgary,AB,(403) 500-2107,,st.joanofarc@cssd.ab.ca,Elementary/Junior High,N,N,Y,Y,N,{B948FA94-BCAC-4D2E-9CF7-09A332A4C9DD},POINT (-114.2072404 51.0571247)
The Calgary School Division,R. T. Alderman School,725 Mapleton Dr SE,T2J1S1,Calgary,AB,(403) 777-7520,,rtalderman@cbe.ab.ca,Elementary/Junior High,N,N,Y,Y,N,{32D8426A-7789-4C8E-B9A1-42475B32C8B9},POINT (-114.0445879 50.9611594)
The Calgary School Division,W.H.Cushing Workplace School,130 - 7 Avenue S.W.,T2P1M6,Calgary,AB,(403) 777-8900,,whcushing@cbe.ab.ca,Unknown,N,N,N,N,N,{145DD6E5-DEA4-4DF8-8FD1-B10853E7C612},POINT (-114.0649132 51.046824)
Foundations for the Future Charter Academy Charter School Society,Northeast Elementary Campus,1140 Mayland Drive NE,T2E6C8,Calgary,AB,,,susan.snowden@ffca-calgary.com,Elementary,N,N,Y,N,N,{7FB7908F-FF19-4163-9BF3-C5BDB22C6BF6},POINT (-114.0112907 51.0641943)
The Calgary School Division,Lester B. Pearson High School,3020  52 St NE,T1Y5P4,Calgary,AB,(403) 280-6565,,lesterbpearson@cbe.ab.ca,Senior High,N,N,N,N,Y,{A6FD92F8-AE8C-4581-BB11-EEA918D766AE},POINT (-113.9563976 51.0769499)
The Calgary Roman Catholic Separate School Division,St. Luke Bilingual Elementary School,"1232 Northmount Dr., N.W.",T2L0E1,Calgary,AB,(403) 500-2039,,stluke@cssd.ab.ca,Elementary,N,N,Y,N,N,{E2BEC07B-9CF4-4C14-877C-D6893B5EB735},POINT (-114.1226868 51.0908267)
The Calgary School Division,Kenneth D. Taylor School,30 Evanscove Cir NW,T3P0A1,Calgary,AB,(403) 817-3504,,kennethdtaylor@cbe.ab.ca,Elementary,N,N,Y,N,N,{D7738045-9AA8-498A-B441-F7E48D3711B2},POINT (-114.1178014 51.165096)
Calgary Academy Society,Calgary Academy,1677 93 rd Street S.W.,T3H0R3,Calgary,AB,(403) 686-6444,,info@calgaryacademy.com,Elementary/Junior High/Senior High,N,N,Y,Y,Y,{CDB06466-D650-4695-8B4E-1ACD2FE4D6F9},POINT (-114.2243772 51.0394313)
The Calgary School Division,Royal Oak School,9100 Royal Birch Blvd NW,T3G5R8,Calgary,AB,(403) 777-6279,,royaloak@cbe.ab.ca,Elementary,N,N,Y,N,N,{E5D874A9-191A-4295-8A97-AB320523414D},POINT (-114.2220693 51.1455728)
Renfrew Educational Services Society,Renfrew Thomas W. Buchanan Centre,2050 - 21 Street N.E.,T2X3V4,Calgary,AB,(403) 291-5038,,renfrew@renfreweducation.org,Elementary/Junior High,N,N,Y,Y,N,{0D691762-D8D5-4FA2-B40A-88F2E781BFA0},POINT (-114.0560057 50.9019437)
The Calgary School Division,Manmeet Singh Bhullar School,1027 Martindale Blvd NE,T3J4Z1,Calgary,AB,(403) 817-3568,,manmeetsinghbhullar@cbe.ab.ca,Elementary,N,N,Y,N,N,{32314020-B4A8-4D6F-AC1B-C3CFCCC109D8},POINT (-113.9594225 51.1233068)
GCA Educational Society,Glenmore Christian Academy Elementary,16520 - 24 Street S.W.,T2Y4W2,Calgary,AB,(403) 254-9050,,admin@gcaschool.com,Elementary,N,N,Y,N,N,{395A40B1-6236-48BD-BD93-5BEC87474A49},POINT (-114.115239 50.9039788)
The Calgary School Division,Dr. Oakley School,3904  20 St SW,T2T4Z9,Calgary,AB,(403) 777-8300,,droakley@cbe.ab.ca,Elementary/Junior High/Senior High,N,N,Y,Y,Y,{6183B3A0-314B-4A89-B6B5-C682E7323A6B},POINT (-114.1084354 51.0192722)
The Palliser School Division,Master's Academy,4414 Crowchild Trail S.W.,T2T5J4,Calgary,AB,(403) 242-7034,,,Elementary,N,N,Y,N,N,{1769A970-AB46-4F43-93D2-F0B9EF96C9C2},POINT (-114.1165458 51.0153024)
The Calgary School Division,Collingwood School,3826 Collingwood Dr NW,T2L0R6,Calgary,AB,(403) 777-6180,,collingwood@cbe.ab.ca,Elementary,N,N,Y,N,N,{6C8D70C1-361F-4209-8DF9-E9821C14C318},POINT (-114.1032575 51.0857819)
The Calgary Roman Catholic Separate School Division,St. Josephine Bakhita School,3 Evansglen Cl NW,T3P0P2,Calgary,AB,(403) 500-2136,,stjosephinebakhita@cssd.ab.ca,Elementary,N,N,Y,N,N,{06EF66B3-38F2-4B67-94D6-AF5C3A8769A3},POINT (-114.1014977 51.1767754)
Neriah Christian School Society of the Netherlands Reformed Congregation,Neriah Christian School,400 Midpark BLVD,T2X2K4,Calgary,AB,(587) 317-6805,,darlene.dekker@neriahcs.ca,Elementary/Junior High,N,N,Y,Y,N,{1EB564F6-B8A3-4E3E-8922-6B7F382144EC},POINT (-114.0588078 50.90852)
Calgary German Language School Society,Calgary German Language School Society,PO Box 84114    Market Mall RPO,T3B2L9,Calgary,AB,(403) 797-1766,,admin@cglss.com,Junior High/Senior High,N,N,N,Y,Y,{1460C55A-E233-47CA-AE8C-0DE4F604B93E},POINT (-114.1927889 51.0875591)
The Calgary School Division,F. E. Osborne School,5315 Varsity Dr NW,T3A1A7,Calgary,AB,(403) 777-7540,,feosborne@cbe.ab.ca,Elementary/Junior High,N,N,Y,Y,N,{6794397C-3456-4B36-8D0F-7706B7F5ED9C},POINT (-114.162965 51.0928118)
The Calgary School Division,Mayland Heights School,2324 Maunsell Drive NE,T2E6A2,Calgary,AB,(403) 777-6290,,maylandheights@cbe.ab.ca,Elementary,N,N,Y,N,N,{CFE07B36-74EF-43CD-A610-E42CAD74B5EA},POINT (-114.0072928 51.0589518)
The Calgary School Division,Douglasdale School,400 Douglas Park Blvd SE,T2Z4A3,Calgary,AB,(403) 777-6177,,douglasdale@cbe.ab.ca,Elementary,N,N,Y,N,N,{EC69DB55-26E5-4CF1-BA0C-48C465EA9234},POINT (-113.9826488 50.935263)
The Calgary Roman Catholic Separate School Division,St. Dominic School,4820 Dalhart Road N.W.,T3A1C2,Calgary,AB,(403) 500-2058,,stdominic@cssd.ab.ca,Elementary,N,N,Y,N,N,{F2F7383A-C189-4910-8717-D4BDCC4DA67E},POINT (-114.1542441 51.1095588)
The Calgary School Division,Calgary Home Education,5505 4A St. SW,T2V0Z7,Calgary,AB,(403) 777-8490,,HomeEducation@cbe.ab.ca,Elementary/Junior High/Senior High,N,N,Y,Y,Y,{EB461005-7598-4B0F-BA7C-B39BEAB9CAE4},POINT (-114.0744439 51.004704)
Capstone Engineering Academy,Capstone Engineering Academy,6115 - 10th Street SE,T2H2Z9,Calgary,AB,(403) 930-3535,,dean@capstoneacad.ca,Elementary/Junior High/Senior High,N,N,Y,Y,Y,{0AC249F8-400A-40F1-8363-D0BCD5037219},POINT (-114.0399857 50.9982805)
The Calgary School Division,Simons Valley School,375 Sandarac Drive NW,T3K4B2,Calgary,AB,(403) 777-6660,,simonsvalley@cbe.ab.ca,Elementary,N,N,Y,N,N,{1F1470B2-F482-466A-B8FE-2DFB489CCB4F},POINT (-114.107326 51.1396781)
Renfrew Educational Services Society,Renfrew Educational Services - Child Development Centre,2050 - 21 Street N.E.,T3B2X9,Calgary,AB,(403) 291-5038,,renfrew@renfreweducation.org,Unknown,N,N,N,N,N,{1C350E3D-5D66-40CB-A1C3-235479EC0961},POINT (-114.1439291 51.0747652)
The Calgary School Division,North Haven School,4922 North Haven Dr NW,T2K2K2,Calgary,AB,(403) 777-6220,,northhaven@cbe.ab.ca,Elementary,N,N,Y,N,N,{8EB2479F-374C-4AF7-82D4-177957EB9585},POINT (-114.0866128 51.0975091)
The Calgary School Division,Lake Bonavista School,1015  120 Ave SE,T2J2L1,Calgary,AB,(403) 777-6871,,lakebonavista@cbe.ab.ca,Elementary,N,N,Y,N,N,{EEC72B15-2995-48EB-AA29-FC14C41FE1A9},POINT (-114.0409238 50.944541)
The Calgary Roman Catholic Separate School Division,St. Anne Academic Centre,1010 - 21 Avenue S.E.,T2G1N2,Calgary,AB,(403) 500-2012,,stanne@cssd.ab.ca,Elementary/Junior High/Senior High,N,N,Y,Y,Y,{55A00AD5-CFDC-4B19-82D6-9F2B4A7EC943},POINT (-114.0389181 51.0351393)
The Calgary Roman Catholic Separate School Division,St. Joseph Elementary Junior High School,2512 - 5 Street N.W.,T2M3C7,Calgary,AB,(403) 500-2009,,stjoseph@cssd.ab.ca,Elementary/Junior High,N,N,Y,Y,N,{1C498705-CE93-4583-BF4B-4632A8DD214F},POINT (-114.0733169 51.0747866)
The Calgary School Division,Cambrian Heights School,640 Northmount Dr NW,T2K3J5,Calgary,AB,(403) 777-6150,,cambrianheights@cbe.ab.ca,Elementary,N,N,Y,N,N,{2E6A20C0-23DF-45A3-9185-B200188A4C47},POINT (-114.0879744 51.0853517)
Yufeng Chinese School Centre,Yufeng Chinese School,169 Citadel Ridge Close NW,T3G4V5,Calgary,AB,(403) 681-8617,,yufengchineseschool@telus.net,Elementary/Junior High/Senior High,N,N,Y,Y,Y,{7366BD84-B036-46BD-9AF8-C54DBC742E96},POINT (-114.1834692 51.1460943)
The Calgary School Division,New Brighton School,30 New Brighton Dr SE,T2Z4B2,Calgary,AB,(403) 817-3516,,newbrighton@cbe.ab.ca,Elementary,N,N,Y,N,N,{165D42A0-5370-4F9B-B72A-406DC1DD9C2F},POINT (-113.9537078 50.9194772)
The Calgary Roman Catholic Separate School Division,St. Bede Elementary School,333 Bermuda Drive N.W.,T3K2J5,Calgary,AB,(403) 500-2082,,stbede@cssd.ab.ca,Elementary,N,N,Y,N,N,{CD41C795-8E6B-4A12-986A-9F29B75EAAC8},POINT (-114.082846 51.1316737)
The Calgary School Division,Griffith Woods School,7652  26 Ave SW,T3H3X2,Calgary,AB,(403) 817-3572,,griffithwoods@cbe.ab.ca,Elementary/Junior High,N,N,Y,Y,N,{FBD1BA82-C399-4F69-B515-289483E81351},POINT (-114.194747 51.0309794)
The Calgary School Division,Woodbine School,27 Woodfield Way SW,T2W5E1,Calgary,AB,(403) 777-8630,,woodbine@cbe.ab.ca,Elementary,N,N,Y,N,N,{B77AF7E8-B4A3-4A67-B89B-D73BB29EEBD8},POINT (-114.1289426 50.9365329)
The Calgary Roman Catholic Separate School Division,Holy Name (Bilingual) School,3011 - 35 Street S.W.,T3E2Y7,Calgary,AB,(403) 500-2006,,holyname@cssd.ab.ca,Elementary,N,N,Y,N,N,{893444BE-BB43-4957-822F-A5E8A37FFB2C},POINT (-114.1390036 51.0282719)
Westmount Charter School Society,Westmount Elementary School,728 - 32 Street NW,T2N2V9,Calgary,AB,(403) 217-0426,,ecadmin@westmountcharter.com,Elementary,N,N,Y,N,N,{EA3E2233-3EA3-459F-B71B-9E3E4E64727B},POINT (-114.1314284 51.0581476)
Renfrew Educational Services Society,Renfrew Educational Services-Bowness Centre,2050 - 21 Street N.E.,T3B2B2,Calgary,AB,(403) 291-5038,,renfrew@renfreweducation.org,Unknown,N,N,N,N,N,{62C90176-4060-49E5-8339-C30E5D07B10B},POINT (-114.2119244 51.0963293)
Foundations for the Future Charter Academy Charter School Society,Southwest Elementary Campus,898 Sylvester Cres. SW,T2W0R7,Calgary,AB,(403) 259-3527,,pam.brah@ffca-calgary.com,Elementary,N,N,Y,N,N,{06B05D34-BCA0-4976-AA2E-AA0C3121828A},POINT (-114.0825466 50.9589807)
The Calgary School Division,Westgate School,150 Westminster Dr SW,T3C2T3,Calgary,AB,(403) 777-8420,,westgate@cbe.ab.ca,Elementary,N,N,Y,N,N,{8FCD9BEE-6DDC-4FC3-8E91-6ED7B4A7B9CB},POINT (-114.1591998 51.0444881)
The Calgary School Division,Georges P. Vanier School,509  32 Ave NE,T2E2H3,Calgary,AB,(403) 777-7460,,georgespvanier@cbe.ab.ca,Elementary/Junior High,N,N,Y,Y,N,{E9641D27-F7A2-4A69-92A7-8AFE2627CB0B},POINT (-114.0520691 51.0806053)
Calgary Chinese Alliance School Society,Calgary Chinese Alliance School,150 Beddington Blvd. NE,T3K2E2,Calgary,AB,(403) 274-7046,,info@ccas.school,Senior High,N,N,N,N,Y,{774828B5-4BC8-4E07-910A-4931C9920F37},POINT (-114.0676255 51.1257326)
The Calgary Roman Catholic Separate School Division,St. Maria Goretti Elementary School,375 Hawkstone Drive N.W.,T3G3T7,Calgary,AB,(403) 500-2099,,stmariagoretti@cssd.ab.ca,Elementary,N,N,Y,N,N,{21F0F590-3679-45D3-8EFC-AD84DBB4A121},POINT (-114.1777507 51.1345242)
The Calgary School Division,Brentwood School,1231 Northmount Dr NW,T2L0C9,Calgary,AB,(403) 777-6130,,brentwood@cbe.ab.ca,Elementary,N,N,Y,N,N,{B319FDB5-60FE-4068-BFA0-46B955164B3B},POINT (-114.123858 51.0904895)
The Calgary School Division,Tuscany School,990 Tuscany Dr NW,T3L2T4,Calgary,AB,(403) 777-8060,,tuscany@cbe.ab.ca,Elementary,N,N,Y,N,N,{F2A59023-FE62-4A5F-931B-DEB559BD6633},POINT (-114.2454306 51.1177871)
The Calgary Roman Catholic Separate School Division,St. Stephen School,10910 Elbow Drive S.W.,T2W1G6,Calgary,AB,(403) 500-2043,,ststephen2@cssd.ab.ca,Elementary/Junior High,N,N,Y,Y,N,{A2032C57-0EE9-4460-A4D6-29C100FB7B0F},POINT (-114.0838525 50.9556954)
The Calgary School Division,McKenzie Highlands School,25 McKenzie Towne Dr SE,T2Z4B7,Calgary,AB,(403) 817-3544,,mckenziehighlands@cbe.ab.ca,Elementary/Junior High,N,N,Y,Y,N,{C5F3FBFA-DA61-4948-BF38-5F9CBD6F0DAA},POINT (-113.9700732 50.9109937)
The Calgary School Division,Belvedere Parkway School,4631  85 St NW,T3B2R8,Calgary,AB,(403) 777-6010,,belvedereparkway@cbe.ab.ca,Elementary,N,N,Y,N,N,{4289DD58-E9F8-43D6-9FB9-3DE519656E48},POINT (-114.2115592 51.0927168)
The Calgary School Division,Chinook Park School,1312  75 Ave SW,T2V0S6,Calgary,AB,(403) 777-8480,,chinookpark@cbe.ab.ca,Elementary,N,N,Y,N,N,{2B69A0F2-83CF-403B-A875-E9F2DFC7A4A3},POINT (-114.0893703 50.9864478)
The Calgary Roman Catholic Separate School Division,Blessed Marie-Rose,999 Sherwood Blvd. NW,T3R1M9,Calgary,AB,(403) 500-2131,,marierose@cssd.ab.ca,Elementary/Junior High,N,N,Y,Y,N,{35183738-264E-4DA5-BF67-EB4CD6D75D94},POINT (-114.1483237 51.1598895)
The Calgary Roman Catholic Separate School Division,Holy Trinity School,1717 - 41 Street S.E.,T2A1L2,Calgary,AB,(403) 500-2032,,holytrinity@cssd.ab.ca,Elementary,N,N,Y,N,N,{A54FA99A-834C-4FEC-B33D-B15FD1F3FC9F},POINT (-113.9749456 51.03897)
The Calgary School Division,Westbrook Outreach,3610 - 9th Street SE,T2G3C5,Calgary,AB,(403) 777-8020,,discoveringchoices@cbe.ab.ca,Senior High,N,N,N,N,Y,{C825BADF-E48F-4294-A0F0-D1DFBF54FA80},POINT (-114.0396247 51.0219975)
The Calgary School Division,Dr. Gordon Townsend School,28 Oki Drive NW,T3B6A8,Calgary,AB,(403) 955-7004,,drgordontownsend@cbe.ab.ca,Elementary/Junior High/Senior High,N,N,Y,Y,Y,{CA7D81DA-EF62-4D2A-9065-E2422DFE4516},POINT (-114.1483456 51.0744945)
The Calgary School Division,Ernest Morrow School,1212  47 St SE,T2A1R3,Calgary,AB,(403) 777-7800,,ernestmorrow@cbe.ab.ca,Elementary/Junior High,N,N,Y,Y,N,{55C3B760-7328-4BAD-9A89-54CADDC233CD},POINT (-113.9648387 51.0433846)
The Calgary School Division,Copperfield School,54 Copperstone Rd SE,T2Z0G7,Calgary,AB,(403) 817-3512,,copperfield@cbe.ab.ca,Elementary,N,N,Y,N,N,{047E7868-D087-4592-AA3D-9E26F0948E8C},POINT (-113.9288059 50.914832)
The Calgary School Division,Midnapore School,55 Midpark Rise SE,T2X1L7,Calgary,AB,(403) 777-8680,,midnapore@cbe.ab.ca,Elementary,N,N,Y,N,N,{07F7EB9A-BDAA-4876-8D1A-028B600FA5E7},POINT (-114.0551747 50.9150402)
Calgary Academy Society,Calgary Academy Collegiate,1677 - 93rd Street S.W.,T3H0R3,Calgary,AB,(403) 686-6444,,info@calgaryacademy.com,Elementary/Junior High/Senior High,N,N,Y,Y,Y,{3AA53C15-DA9D-4113-B841-999424845581},POINT (-114.2243772 51.0394313)
The Calgary School Division,Colonel Sanders School,226 Northmount Dr NW,T2K3G5,Calgary,AB,(403) 777-6034,,ColonelSanders@cbe.ab.ca,Elementary,N,N,Y,N,N,{0E1D6300-A710-4B0F-87CA-B38535AD1F98},POINT (-114.0747704 51.0998137)
The Calgary Roman Catholic Separate School Division,St. John XXIII School,1420 Falconridge Drive N.E.,T3J2C3,Calgary,AB,(403) 500-2080,,stjohn23@cssd.ab.ca,Elementary/Junior High,N,N,Y,Y,N,{AF04209E-5107-4199-BBE6-840900283518},POINT (-113.9389781 51.101405)
The Calgary Roman Catholic Separate School Division,Divine Mercy School,228 Mahogany Blvd. SE,T3M1M5,Calgary,AB,(403) 500-2132,,divinemercy@cssd.ab.ca,Elementary,N,N,Y,N,N,{482C4B78-ADA6-4B67-A732-5D3FA0DA615C},POINT (-113.9239578 50.9015566)
The Southern Francophone Education Region,École de la Rose sauvage,2512 - 4 Street N.W.,T2M2Z9,Calgary,AB,(403) 230-3112,,,Junior High/Senior High,N,N,N,Y,Y,{71667914-51B6-464C-9121-67F7119410BF},POINT (-114.0703034 51.0748446)
The Calgary School Division,Ted Harrison School,215 Taravista Way NE,T3J4L1,Calgary,AB,(403) 817-3330,,TedHarrison@cbe.ab.ca,Elementary/Junior High,N,N,Y,Y,N,{307BF21F-CCA7-4A16-AB5B-5DBA1CF03C91},POINT (-113.9282542 51.1172328)
The Calgary School Division,Pineridge School,1927  61 St NE,T1Y4W6,Calgary,AB,(403) 777-6750,,pineridge@cbe.ab.ca,Elementary,N,N,Y,N,N,{31D87C49-5D20-4602-AF68-655EC5861F94},POINT (-113.9452293 51.0703248)
The Calgary School Division,Hillhurst School,1418  7 Ave NW,T2N0Z2,Calgary,AB,(403) 777-6360,,hillhurst@cbe.ab.ca,Elementary,N,N,Y,N,N,{6010B32F-389C-4725-BB9F-6AABDD788031},POINT (-114.0931372 51.0592948)
The Palliser School Division,Palliser Beyond Borders at Calgary,Suite 120,T1Y5Z6,Calgary,AB,(403) 291-0584,,,Unknown,N,N,N,N,N,{8CC30FC3-DDC5-48AE-A302-793A2D7F5E6E},POINT (-113.9990423 51.0861144)
Calgary Girls' School Society,Calgary Girls Charter School - Bel Aire Campus,6304 Larkspur Way SW,T2V2C4,Calgary,AB,(403) 220-0745,,office@calgarygirlsschool.com,Elementary,N,N,Y,N,N,{E4A1D12D-D331-46E1-902E-B5602C2A9485},POINT (-114.0850989 50.9984089)
The Calgary Roman Catholic Separate School Division,St. Andrew School,4331 - 41 Avenue S.W.,T3E1G2,Calgary,AB,(403) 500-2031,,standrew@cssd.ab.ca,Elementary,N,N,Y,N,N,{D2B440FD-FE0F-4AD7-AA2F-BAA5DDA31A5D},POINT (-114.1477242 51.0163628)
The Calgary School Division,Alex Munro School,427 78 Ave NE,T2K0R9,Calgary,AB,(403) 777-6600,,alexmunro@cbe.ab.ca,Elementary,N,N,Y,N,N,{8C2A5615-CB61-40B6-A06F-0C71EF0BA40C},POINT (-114.0613952 51.1206474)
The Calgary School Division,Andrew Sibbald School,1711 Lake Bonavista Dr SE,T2J2X9,Calgary,AB,(403) 777-6830,,andrewsibbald@cbe.ab.ca,Elementary,N,N,Y,N,N,{E1803699-55FF-4E8F-A901-A6BB109C6A5D},POINT (-114.0408775 50.9351786)
STEM Innovation Academy Society,STEM Innovation Academy High School,3636 Research Road NW,T2L2K7,Calgary,AB,(587) 943-2499,,info@stemia.ca,Senior High,N,N,N,N,Y,{B8979247-3151-49E5-81AC-C0B3D883D453},POINT (-114.1305974 51.0843338)
The Calgary Roman Catholic Separate School Division,Father Doucet School,65 Shannon Drive S.W.,T2Y2T5,Calgary,AB,(403) 500-2089,,fatherdoucet@cssd.ab.ca,Elementary,N,N,Y,N,N,{D6D99095-5787-4C53-A828-CB4C9362665B},POINT (-114.0851689 50.9093442)
The Calgary School Division,Maple Ridge School,10203 Maplemont Rd SE,T2J1W3,Calgary,AB,(403) 777-6280,,mapleridge@cbe.ab.ca,Elementary,N,N,Y,N,N,{7A24FA6F-1917-469E-BB90-19B0F57FB028},POINT (-114.0419588 50.9618905)
The Calgary Roman Catholic Separate School Division,Light of Christ Catholic School,6270 Saddlehorn Dr. N.E.,T3J0L8,Calgary,AB,(403) 500-2121,,lightofchrist@cssd.ab.ca,Elementary/Junior High,N,N,Y,Y,N,{DD3F30A6-3BAE-4F70-974E-F78BE5FFF5A8},POINT (-113.9412735 51.1295372)
The Calgary School Division,Tom Baines School,250 Edgepark Blvd NW,T3A3S2,Calgary,AB,(403) 777-7190,,tombaines@cbe.ab.ca,Elementary/Junior High,N,N,Y,Y,N,{D4D83BC5-CCB4-4739-9EF2-CFFB9934AE68},POINT (-114.1569935 51.1335144)
The Calgary School Division,Dr. E. P. Scarlett High School,220 Canterbury Dr SW,T2W1H4,Calgary,AB,(403) 281-3366,,drepscarlett@cbe.ab.ca,Senior High,N,N,N,N,Y,{1AC8B132-7BE4-4C0D-9DD6-60CDC04B9B8C},POINT (-114.0879719 50.9487874)
The Calgary School Division,Keeler School,4807 Forego Ave SE,T2A2C4,Calgary,AB,(403) 777-8180,,keeler@cbe.ab.ca,Elementary,N,N,Y,N,N,{F6B2748E-5162-431C-90C8-BD590BA544CA},POINT (-113.9648131 51.0492568)
The Calgary School Division,West View School,Calgary Young Offender Centre  12626 - 85 Street N.W.,T3R1J3,Calgary,AB,(403) 662-3547,,westview@cbe.ab.ca,Junior High/Senior High,N,N,N,Y,Y,{242CDC8B-8259-444F-8807-591C8EB7D00E},POINT (-114.2080136 51.1655306)
The Calgary School Division,Henry Wise Wood High School,910  75 Ave SW,T2V0S6,Calgary,AB,(403) 253-2261,,henrywisewood@cbe.ab.ca,Senior High,N,N,N,N,Y,{D497B610-8DA7-481C-AC01-0F4378B52F40},POINT (-114.0846844 50.9863406)
The Calgary School Division,Radisson Park School,2805 Radcliffe Dr SE,T2A0C8,Calgary,AB,(403) 777-8070,,radissonpark@cbe.ab.ca,Elementary,N,N,Y,N,N,{2C755A9A-D085-4C5E-8567-DDDC04DFB944},POINT (-113.992233 51.0461614)
Westmount Charter School Society,Westmount Mid/High School,2215 Uxbridge Dr. N.W.,T2N4Y3,Calgary,AB,,,mhadmin@westmountcharter.com,Elementary/Junior High/Senior High,N,N,Y,Y,Y,{53BC617A-46E4-42F7-9347-8611C6939774},POINT (-114.1325128 51.0710476)
The Calgary School Division,Niitsitapi Learning Centre,3743 Dover Ridge Dr SW,T2B2E1,Calgary,AB,(403) 817-3404,,niitsitapilearningcentre@cbe.ab.ca,Elementary,N,N,Y,N,N,{FC103223-2D2B-447F-AA19-9B6955539918},POINT (-113.9793371 51.0205887)
The Calgary School Division,Haultain Memorial School,605 Queensland Dr SE,T2J4S8,Calgary,AB,(403) 777-6860,,haultainmemorial@cbe.ab.ca,Elementary,N,N,Y,N,N,{95296F39-0BB7-425C-8015-3DFE7778E0E8},POINT (-114.0233187 50.9395442)
The Calgary School Division,Discovering Choices II,#101 495 36 ST NE,T2A6K3,Calgary,AB,(403) 777-8384,,discoveringchoices@cbe.ab.ca,Senior High,N,N,N,N,Y,{E321048D-07E2-41D6-908B-932C6F3C558A},POINT (-113.9849703 51.056524)
The Calgary Roman Catholic Separate School Division,St. Margaret School,3320 Carol Drive N.W.,T2L0K7,Calgary,AB,(403) 500-2025,,saint.margaret@cssd.ab.ca,Elementary/Junior High,N,N,Y,Y,N,{D662EC2D-8834-40E9-9250-B5F8F5525C52},POINT (-114.0976374 51.0821353)
The Calgary School Division,McKenzie Lake School,16210 McKenzie Lake Way SE,T2Z1L7,Calgary,AB,(403) 777-6500,,mckenzielake@cbe.ab.ca,Elementary,N,N,Y,N,N,{42B5BF11-9FB9-432D-9E36-ACCA6713DE96},POINT (-113.9849974 50.9062179)
The Calgary Roman Catholic Separate School Division,St. Hubert Elementary School,320 - 72 Avenue N.E.,T2K5J3,Calgary,AB,(403) 500-2067,,sthubert@cssd.ab.ca,Elementary,N,N,Y,N,N,{336BC83C-1B90-491E-B878-FF6F1A18D566},POINT (-114.0622133 51.1183759)
Alberta Classical Academy Ltd.,Calgary Classical Academy Currie Campus,2415 Battleford Ave SW,T3E7K9,Calgary,AB,(587) 885-3688,,info@classicalacademy.ca,Elementary/Junior High,N,N,Y,Y,N,{B0A7E983-94BB-43BA-902C-986CA6BD8A38},POINT (-114.1190467 51.0176444)
The Calgary School Division,Roland Michener School,5958  4 Ave NE,T2A4B1,Calgary,AB,(403) 777-8240,,rolandmichener@cbe.ab.ca,Elementary,N,N,Y,N,N,{5AF7A14D-3354-4FDD-8CF4-EA306FDC59F4},POINT (-113.9473997 51.0570194)
The Calgary Roman Catholic Separate School Division,Father Scollen School,6839 Temple Drive N.E.,T1Y5N4,Calgary,AB,(403) 500-2088,,fatherscollen@cssd.ab.ca,Elementary/Junior High,N,N,Y,Y,N,{7376E4D2-0726-46C2-B710-D265AC2ABCE1},POINT (-113.9419616 51.0930203)
The Chinese Academy Foundation,The Chinese Academy,"#191, 1518 
Centre Street N.E.",T2K1C2,Calgary,AB,(403) 777-7663,,thechineseacademy@gmail.com,Senior High,N,N,N,N,Y,{6CAF403A-5CC3-41B4-B377-5122630B2AB6},POINT (-114.0701312 51.1127974)
The Calgary Roman Catholic Separate School Division,St. Ambrose School,1500 Arbour Lake Road N.W.,T3G4X9,Calgary,AB,(403) 500-2100,,stambrose@cssd.ab.ca,Elementary/Junior High,N,N,Y,Y,N,{BEB666DE-CE2F-4D15-A586-7D9F8A9981DA},POINT (-114.2061578 51.1334667)
The Calgary School Division,Scenic Acres School,50 Scurfield Way NW,T3L1T2,Calgary,AB,(403) 777-6193,,scenicacres@cbe.ab.ca,Elementary,N,N,Y,N,N,{C5C0910C-229B-45E5-BCFC-594FD5ED8D5A},POINT (-114.2156566 51.1200891)
The Calgary School Division,West Ridge School,8903 Wentworth Ave SW,T3H5N9,Calgary,AB,(403) 817-3552,,westridge@cbe.ab.ca,Elementary/Junior High,N,N,Y,Y,N,{02CA660B-70C2-4434-9DAE-111A1FD66D47},POINT (-114.2142424 51.0584892)
The Calgary Roman Catholic Separate School Division,St. Brigid,"730 Citadel Way, N.W.",T3G5S6,Calgary,AB,(403) 500-2113,,stbrigid@cssd.ab.ca,Elementary/Junior High,N,N,Y,Y,N,{D3F0B7AB-3D48-4A85-A01B-AC0F111FAF5A},POINT (-114.1877229 51.1463403)
The Calgary Roman Catholic Separate School Division,St. William School,11020 Fairmount Drive S.E.,T2J0T1,Calgary,AB,(403) 500-2055,,stwilliam@cssd.ab.ca,Elementary,N,N,Y,N,N,{2D7405E5-37DE-4CA7-9890-1B3EE733961D},POINT (-114.0592582 50.9536216)
River Valley School Society,River Valley School ECS,3127 Bowwood Drive N.W.,T3B2E7,Calgary,AB,(403) 246-2275,,info@rivervalleyschool.ca,Unknown,N,N,N,N,N,{FBAE9CF2-86B3-478E-B2F9-6E1B873A8D18},POINT (-114.1743441 51.0794694)
The Calgary School Division,Chief Justice Milvain School,3428  42 St NE,T1Y6A3,Calgary,AB,(403) 777-6700,,chiefjusticemilvain@cbe.ab.ca,Elementary,N,N,Y,N,N,{52C72F6F-59E5-4620-B70F-1EC490897535},POINT (-113.97219 51.083686)
The Calgary Roman Catholic Separate School Division,Monsignor J. S. Smith School,2919 Douglasdale Boulevard S.E,T2Z2H9,Calgary,AB,(403) 500-2069,,msgrsmith@cssd.ab.ca,Elementary/Junior High,N,N,Y,Y,N,{827EC0B2-6B28-41F1-9CA7-F5B4D2BE5E60},POINT (-113.9898663 50.9412085)
Access International College (Calgary) Incorporated,Access Academy,B1 - 2451 Dieppe Avenue S.W.  Box 100,T3E7K1,Calgary,AB,(403) 455-3033,,info@accessacademy.ca,Junior High/Senior High,N,N,N,Y,Y,{F09A9DB6-C63D-42A3-B97E-8DD27927A99D},POINT (-114.1190388 51.0192866)
The Calgary School Division,Project Trust,3610 - 9th Street SE,T2M4P6,Calgary,AB,(403) 777-6107,,discoveringchoices@cbe.ab.ca,Unknown,N,N,N,N,N,{9A3802C1-5618-4469-8354-C809379ECBBF},POINT (-114.0828403 51.0720702)
Calgary Girls' School Society,Calgary Girls Charter School,6304 Larkspur Way S.W.,T3E5P7,Calgary,AB,(403) 220-0745,,office@calgarygirlsschool.com,Elementary/Junior High,N,N,Y,Y,N,{81F24C01-D3DB-4BCC-AB6D-11E638CB050C},POINT (-114.1147539 50.999077)
Delta West Academy Society,Delta West Academy,414 - 11A Street N.E.,T2E4P3,Calgary,AB,(403) 290-0767,,info@deltawestacademy.ca,Elementary/Junior High/Senior High,N,N,Y,Y,Y,{2ED7CCB5-5E51-419C-9241-5A9C55BC1719},POINT (-114.0346249 51.0551077)
The Calgary School Division,Vista Heights School,2411 Vermillion St NE,T2E6J3,Calgary,AB,(403) 777-6000,,vistaheights@cbe.ab.ca,Elementary,N,N,Y,N,N,{5A14C5C3-2616-4544-A01A-AE24C0A071D0},POINT (-114.0170736 51.0738872)
The Calgary School Division,Fish Creek School,1039 Suncastle Dr SE,T2X2Z1,Calgary,AB,(403) 777-6400,,fishcreek@cbe.ab.ca,Elementary,N,N,Y,N,N,{23F5D29C-2C17-40F0-940A-AAD6E80C81AE},POINT (-114.0328114 50.9015051)
The Canadian Reformed School Society of Calgary,Tyndale Christian School,28 Hart Estates Blvd. NE,T1X0L3,Calgary,AB,(403) 590-5881,,tcs@tyndalecalgary.ca,Elementary/Junior High/Senior High,N,N,Y,Y,Y,{BB542878-A372-44FA-BA59-6D6753C753CC},POINT (-113.8677457 51.0586339)
The Calgary School Division,North Trail High School,12500 Harvest Hills Blvd. NE,T3K2S3,Calgary,AB,(403) 817-4000,,schoolimprovement@cbe.ab.ca,Junior High/Senior High,N,N,N,Y,Y,{F6288852-900B-4250-8053-3BECC462D54F},POINT (-114.0664551 51.1675814)
The Calgary School Division,Bob Edwards School,4424 Marlborough Dr NE,T2A2Z5,Calgary,AB,(403) 777-7770,,bobedwards@cbe.ab.ca,Elementary/Junior High,N,N,Y,Y,N,{7EADBD6A-043E-4F0A-95E2-32D58BA2B1AE},POINT (-113.9687737 51.0599294)
The Calgary School Division,Christine Meikle School,3525 50 St NW,T3A2Y5,Calgary,AB,(403) 817-3524,,christinemeikle@cbe.ab.ca,Elementary/Junior High/Senior High,N,N,Y,Y,Y,{0BBCFA40-31AE-4B29-ADC3-EC11F242BC7F},POINT (-114.1610657 51.0845447)
Rundle College Society,Rundle College Junior Senior High,7375 - 17 Avenue SW,T3H3W5,Calgary,AB,(403) 250-7180,,contactus@rundle.ab.ca,Junior High/Senior High,N,N,N,Y,Y,{826D0968-33EC-4ECC-9C1C-7B242740588A},POINT (-114.1939221 51.0368941)
The Calgary Roman Catholic Separate School Division,St. Patrick School,6006 Rundlehorn Drive N.E.,T1Y2X1,Calgary,AB,(403) 500-2076,,stpatrick@cssd.ab.ca,Elementary,N,N,Y,N,N,{0E7CF860-7F1D-4F28-8C4C-8AA8B4377036},POINT (-113.9467028 51.07199)
Calgary Arts Academy Society,Calgary Arts Academy Rosscarrock Middle School,1406 40th Street SW,T3C1W7,Calgary,AB,(403) 255-1984,,cjordan@caaschool.com,Unknown,N,N,N,N,N,{CC93E047-82BC-4396-B816-89445473F635},POINT (-114.1447822 51.0412164)
The Calgary School Division,Catherine Nichols Gunn School,6625  4 St NE,T2K5C7,Calgary,AB,(403) 777-6620,,cngunn@cbe.ab.ca,Elementary,N,N,Y,N,N,{4B9BB2D4-C1E8-4FD0-AAAF-73EFA23CF9F7},POINT (-114.057895 51.1116437)
The Calgary School Division,Wilma Hansen School,963 Queensland Dr SE,,Calgary,AB,(403) 777-7430,,wilmahansen@cbe.ab.ca,Elementary/Junior High,N,N,Y,Y,N,{76DEEB4C-BBB9-4FFB-A1A3-0C58558247D6},POINT (-114.0188704 50.9322873)
The Calgary School Division,Chaparral School,480 Chaparral Dr SE,T2X3S2,Calgary,AB,(403) 777-6424,,chaparral@cbe.ab.ca,Elementary,N,N,Y,N,N,{204FDD2C-73AF-40F6-89A1-577CAA71A748},POINT (-114.0449682 50.882964)
The Calgary School Division,Senator Patrick Burns School,2155 Chilcotin Rd NW,T2L0X2,Calgary,AB,(403) 777-7400,,senatorpatrickburns@cbe.ab.ca,Elementary/Junior High,N,N,Y,Y,N,{505DA112-579E-4151-9F65-6FF75538DA71},POINT (-114.1155367 51.0882111)
The Canadian Montessori School Ltd.,Canadian Montessori School,1112 70 Avenue S.W.,T2V0P6,Calgary,AB,(403) 862-8551,,admin@calgarymontessorischool.com,Elementary,N,N,Y,N,N,{CEFEDA05-C88B-49DA-B9CD-34E18CA8EC0C},POINT (-114.0882622 50.9907447)
The Calgary Roman Catholic Separate School Division,St. Matthew School,416 - 83 Avenue S.E.,T2H1N3,Calgary,AB,(403) 500-2030,,stmatthew@cssd.ab.ca,Elementary/Junior High,N,N,Y,Y,N,{54CFE1CB-5DA5-49DD-BEB6-B549FC3745D0},POINT (-114.0585101 50.9786824)
The Palliser School Division,National Sport School,151 Canada Olympic Rd SW,T3B6B7,Calgary,AB,(403) 777-7329,,robert.jewan@pallisersd.ab.ca,Junior High/Senior High,N,N,N,Y,Y,{C1475F3E-D6A2-49F3-9CFF-D0DB9F7BAE08},POINT (-114.2210265 51.0847948)
The Calgary School Division,Forest Lawn High School,1304  44 St SE,T2A1M8,Calgary,AB,(403) 272-6665,,forestlawn@cbe.ab.ca,Senior High,N,N,N,N,Y,{C8D7A563-2CEB-46DE-9819-AF31EE0DA107},POINT (-113.9689496 51.0424031)
The Calgary Roman Catholic Separate School Division,St. Helena School,320 - 64 Avenue N.W.,T2K0L8,Calgary,AB,(403) 500-2049,,sthelena@cssd.ab.ca,Junior High,N,N,N,Y,N,{5CCF925D-BA7F-46E3-A667-7A117D7E42EB},POINT (-114.0677824 51.1115337)
Calgary International Academy Ltd,Calgary International Academy,110-1248 Livingston Way NE,T3G5J7,Calgary,AB,(403) 991-7534,,info@ciacademy.ca,Elementary,N,N,Y,N,N,{0AEA1AFE-C0D8-44F9-8653-9CD0CB2F0988},POINT (-114.231867 51.1391189)
The Calgary School Division,Marion Carson School,5225 Varsity Dr NW,T3A1A7,Calgary,AB,(403) 777-6050,,MarionCarson@cbe.ab.ca,Elementary,N,N,Y,N,N,{5AFF3C59-B44D-45F3-9BE6-D4607D459E75},POINT (-114.1614063 51.0929166)
The Calgary School Division,Sir Winston Churchill High School,5220 Northland Dr NW,T2L2J6,Calgary,AB,(403) 289-9241,,sirwinstonchurchill@cbe.ab.ca,Senior High,N,N,N,N,Y,{DAD1399D-F7FC-4D1A-8124-1E4CC540F804},POINT (-114.13999 51.1001127)
The Calgary School Division,Penbrooke Meadows School,5645 Pensacola Cres SE,T2A2G4,Calgary,AB,(403) 777-8230,,penbrookemeadows@cbe.ab.ca,Elementary,N,N,Y,N,N,{C7539706-ABAB-4017-8FFE-6CFD64F0BE58},POINT (-113.9521888 51.0417953)
Congregation House of Jacob-Mikveh Israel,Akiva Academy,140 Haddon Road S.W.,T2V2Y3,Calgary,AB,(403) 258-1312,,office@akiva.ca,Elementary/Junior High,N,N,Y,Y,N,{762FC253-E6D2-4593-9D03-C664C2E97360},POINT (-114.0778236 50.9732774)
The Calgary Roman Catholic Separate School Division,Madeleine D' Houet Bilingual School,108 - 22 Street N.W.,T2N2M8,Calgary,AB,(403) 500-2008,,madeleinedhouet@cssd.ab.ca,Junior High,N,N,N,Y,N,{92E7FB5A-CB2F-4BF7-BF3F-82383737EFF8},POINT (-114.1122383 51.0531936)
The Calgary School Division,Connaught School,1121  12 Ave SW,T2R0J8,Calgary,AB,(403) 777-8560,,connaught@cbe.ab.ca,Elementary,N,N,Y,N,N,{6452A69B-4C82-42FB-9384-7B5BD7B285E0},POINT (-114.0877162 51.0415327)
The Calgary School Division,Harold Panabaker School,23 Sackville Dr SW,T2W0W3,Calgary,AB,(403) 777-7890,,haroldpanabaker@cbe.ab.ca,Elementary/Junior High,N,N,Y,Y,N,{9D8BE074-04AC-42F3-8984-7A46FE37EA35},POINT (-114.0866482 50.9576396)
